{"type":"FeatureCollection","features":[{"type":"Feature","properties":{"canton":"Quito","canton_full":"DISTRITO METROPOLITANO DE QUITO","nombre":"Quito (D.M.)","color":"#2563eb","codcan":"60","bbox":[-78.94769,-0.59061,-78.1651,0.27731]},"geometry":{"type":"Polygon","coordinates":[[[-78.49461,0.2739],[-78.48978,0.27076],[-78.48831,0.26772],[-78.49006,0.26592],[-78.48789,0.26345],[-78.48422,0.26595],[-78.4819,0.26627],[-78.47852,0.265],[-78.4752,0.26612],[-78.46635,0.25968],[-78.46534,0.25296],[-78.4636,0.24965],[-78.45852,0.24606],[-78.45693,0.2439],[-78.45652,0.24083],[-78.45415,0.23998],[-78.45415,0.23824],[-78.45245,0.23711],[-78.45531,0.23083],[-78.45267,0.23061],[-78.451,0.22652],[-78.44993,0.22121],[-78.45059,0.21835],[-78.44967,0.21546],[-78.45007,0.21304],[-78.44731,0.2144],[-78.44516,0.2087],[-78.44051,0.20369],[-78.43629,0.20163],[-78.43363,0.19502],[-78.4301,0.19835],[-78.42843,0.20183],[-78.42622,0.2033],[-78.42303,0.20948],[-78.4213,0.20994],[-78.42164,0.21098],[-78.41963,0.21221],[-78.41959,0.21364],[-78.4148,0.21714],[-78.41244,0.21779],[-78.41088,0.21708],[-78.41023,0.21783],[-78.40878,0.22244],[-78.41006,0.22645],[-78.40236,0.24067],[-78.39701,0.23752],[-78.39213,0.23808],[-78.39387,0.24404],[-78.39326,0.24538],[-78.39018,0.24477],[-78.3881,0.24736],[-78.38492,0.24831],[-78.38411,0.25096],[-78.38156,0.25017],[-78.38113,0.25656],[-78.37653,0.25656],[-78.37676,0.26074],[-78.3741,0.26093],[-78.37304,0.26011],[-78.37193,0.25406],[-78.36912,0.25067],[-78.36229,0.24809],[-78.3563,0.24365],[-78.35456,0.24447],[-78.35641,0.2419],[-78.35321,0.23643],[-78.3542,0.22968],[-78.35398,0.23047],[-78.34722,0.23047],[-78.34613,0.22814],[-78.3454,0.22967],[-78.34396,0.23028],[-78.34346,0.22962],[-78.34362,0.22738],[-78.34607,0.22236],[-78.34614,0.21855],[-78.34834,0.2177],[-78.34763,0.21555],[-78.35008,0.2137],[-78.34932,0.21535],[-78.35114,0.2136],[-78.35015,0.21099],[-78.35091,0.21044],[-78.35682,0.2172],[-78.36386,0.20851],[-78.36266,0.20592],[-78.3584,0.2033],[-78.35853,0.2002],[-78.36067,0.19265],[-78.36196,0.1921],[-78.36314,0.18867],[-78.36522,0.18632],[-78.36655,0.17823],[-78.37018,0.17565],[-78.37234,0.17068],[-78.37426,0.1698],[-78.37476,0.16827],[-78.37627,0.16799],[-78.37464,0.16533],[-78.375,0.16093],[-78.37373,0.15915],[-78.37187,0.16159],[-78.36848,0.1627],[-78.36826,0.16499],[-78.36686,0.16588],[-78.36544,0.16551],[-78.36411,0.16754],[-78.3622,0.16714],[-78.3578,0.17109],[-78.34908,0.18483],[-78.34323,0.19142],[-78.34318,0.19377],[-78.34113,0.1954],[-78.33993,0.19798],[-78.33933,0.20386],[-78.33287,0.20207],[-78.33309,0.19697],[-78.33109,0.19398],[-78.33161,0.19322],[-78.33068,0.19142],[-78.32356,0.19039],[-78.32066,0.18747],[-78.3186,0.18798],[-78.31417,0.18696],[-78.31062,0.1852],[-78.30976,0.18383],[-78.30689,0.18296],[-78.30548,0.18017],[-78.30527,0.17666],[-78.30005,0.1726],[-78.30123,0.16995],[-78.30003,0.16735],[-78.30137,0.16555],[-78.29909,0.16379],[-78.29748,0.16394],[-78.2967,0.16278],[-78.29753,0.16269],[-78.29686,0.16054],[-78.29941,0.16093],[-78.30216,0.1557],[-78.29604,0.14803],[-78.30062,0.14829],[-78.30423,0.14614],[-78.30387,0.14318],[-78.30623,0.14219],[-78.30579,0.14135],[-78.30777,0.13901],[-78.30914,0.13328],[-78.30847,0.13207],[-78.30896,0.12913],[-78.30542,0.12536],[-78.30485,0.12232],[-78.30064,0.11508],[-78.30338,0.11478],[-78.30037,0.11343],[-78.3072,0.11368],[-78.3094,0.11577],[-78.31223,0.11546],[-78.3118,0.11347],[-78.31325,0.11139],[-78.31744,0.11034],[-78.32015,0.11085],[-78.3215,0.10867],[-78.32623,0.1061],[-78.33036,0.1066],[-78.33475,0.10431],[-78.33344,0.10259],[-78.33148,0.10282],[-78.32677,0.10035],[-78.32651,0.09757],[-78.32833,0.09382],[-78.32749,0.0932],[-78.32453,0.09422],[-78.32716,0.09052],[-78.32759,0.08787],[-78.33055,0.08615],[-78.33348,0.08278],[-78.34206,0.07834],[-78.34456,0.07547],[-78.3448,0.07336],[-78.34783,0.07268],[-78.35128,0.07046],[-78.3578,0.06312],[-78.37069,0.05918],[-78.37351,0.05731],[-78.37511,0.05346],[-78.37906,0.05329],[-78.39103,0.03849],[-78.39232,0.02925],[-78.39661,0.02682],[-78.39713,0.0236],[-78.39922,0.01966],[-78.39508,0.01703],[-78.39595,0.01674],[-78.39624,0.01436],[-78.39431,0.01142],[-78.39439,0.00709],[-78.39697,0.0045],[-78.39587,0.00249],[-78.39693,-0.00092],[-78.39949,-0.00312],[-78.40065,-0.00627],[-78.40273,-0.00511],[-78.40427,-0.00676],[-78.40457,-0.00876],[-78.40079,-0.00956],[-78.39942,-0.01158],[-78.39757,-0.0202],[-78.39939,-0.02575],[-78.39553,-0.03541],[-78.39229,-0.03802],[-78.38717,-0.03911],[-78.38461,-0.03753],[-78.38334,-0.03474],[-78.38196,-0.03441],[-78.3817,-0.0315],[-78.37733,-0.03236],[-78.37437,-0.0298],[-78.36735,-0.02881],[-78.35828,-0.02297],[-78.35389,-0.02512],[-78.35473,-0.02893],[-78.35363,-0.03159],[-78.34737,-0.03445],[-78.34567,-0.03393],[-78.34406,-0.03552],[-78.34208,-0.03524],[-78.34154,-0.03649],[-78.33731,-0.03695],[-78.33385,-0.03135],[-78.33495,-0.02834],[-78.33311,-0.02641],[-78.33401,-0.02455],[-78.3296,-0.02217],[-78.32594,-0.01857],[-78.32418,-0.02046],[-78.32278,-0.01977],[-78.32086,-0.02027],[-78.32119,-0.02134],[-78.31974,-0.0222],[-78.31869,-0.02537],[-78.31656,-0.02503],[-78.31557,-0.02609],[-78.31305,-0.02558],[-78.30963,-0.02903],[-78.30747,-0.02981],[-78.30683,-0.02627],[-78.30495,-0.02561],[-78.3004,-0.02883],[-78.29805,-0.02913],[-78.29685,-0.0314],[-78.29758,-0.03259],[-78.29724,-0.03588],[-78.29589,-0.03844],[-78.29258,-0.04059],[-78.29128,-0.04346],[-78.28586,-0.04951],[-78.28087,-0.05379],[-78.27303,-0.05636],[-78.27341,-0.05772],[-78.27846,-0.05914],[-78.28791,-0.0557],[-78.29124,-0.05277],[-78.29461,-0.05277],[-78.2961,-0.0556],[-78.29585,-0.05693],[-78.29879,-0.06128],[-78.30239,-0.06128],[-78.30534,-0.06453],[-78.30837,-0.0651],[-78.31052,-0.06664],[-78.30975,-0.07035],[-78.30834,-0.0716],[-78.30711,-0.07899],[-78.30529,-0.08114],[-78.30401,-0.08692],[-78.30167,-0.08962],[-78.29241,-0.08994],[-78.28737,-0.09358],[-78.28172,-0.09567],[-78.2796,-0.09555],[-78.27569,-0.09826],[-78.25937,-0.09915],[-78.25116,-0.09549],[-78.24254,-0.08841],[-78.22536,-0.09135],[-78.22283,-0.09091],[-78.22084,-0.08903],[-78.21441,-0.08758],[-78.21316,-0.08607],[-78.21431,-0.09422],[-78.21659,-0.09665],[-78.21916,-0.10273],[-78.226,-0.1069],[-78.23315,-0.10916],[-78.23685,-0.11528],[-78.24589,-0.11718],[-78.25601,-0.11787],[-78.26522,-0.12156],[-78.27652,-0.12026],[-78.27652,-0.12256],[-78.27354,-0.12291],[-78.27332,-0.12388],[-78.27086,-0.12492],[-78.26902,-0.12375],[-78.26532,-0.1249],[-78.25894,-0.12453],[-78.25425,-0.12248],[-78.25161,-0.12379],[-78.25001,-0.12711],[-78.24554,-0.12812],[-78.24275,-0.13128],[-78.23643,-0.13266],[-78.23383,-0.13486],[-78.22993,-0.1335],[-78.2209,-0.13767],[-78.20702,-0.14185],[-78.19563,-0.15006],[-78.18377,-0.15395],[-78.18129,-0.1572],[-78.17996,-0.15702],[-78.17727,-0.16015],[-78.17504,-0.16494],[-78.17034,-0.16862],[-78.16986,-0.17085],[-78.16597,-0.1734],[-78.1651,-0.17775],[-78.16894,-0.18047],[-78.16706,-0.18689],[-78.17028,-0.19185],[-78.17424,-0.19487],[-78.17601,-0.19503],[-78.17817,-0.19427],[-78.18099,-0.19142],[-78.18241,-0.19134],[-78.18322,-0.19292],[-78.18997,-0.19779],[-78.18975,-0.2017],[-78.19255,-0.20811],[-78.19205,-0.21117],[-78.19056,-0.212],[-78.18763,-0.21172],[-78.18523,-0.21435],[-78.18761,-0.22345],[-78.19097,-0.22811],[-78.18695,-0.22954],[-78.18572,-0.23486],[-78.18591,-0.23717],[-78.18948,-0.24063],[-78.1874,-0.25103],[-78.19076,-0.2563],[-78.18594,-0.2627],[-78.18555,-0.26511],[-78.18904,-0.26919],[-78.19154,-0.27505],[-78.19072,-0.27801],[-78.19139,-0.28084],[-78.1881,-0.28239],[-78.18785,-0.28686],[-78.19058,-0.29014],[-78.19106,-0.29304],[-78.19206,-0.29385],[-78.19269,-0.29819],[-78.19182,-0.29993],[-78.19198,-0.30414],[-78.19648,-0.30535],[-78.19382,-0.30841],[-78.1943,-0.31132],[-78.1911,-0.31637],[-78.19106,-0.31873],[-78.19316,-0.32273],[-78.1929,-0.32489],[-78.19473,-0.3253],[-78.19651,-0.32958],[-78.19963,-0.32957],[-78.20146,-0.33222],[-78.20268,-0.33253],[-78.20346,-0.33528],[-78.20726,-0.34025],[-78.20676,-0.34471],[-78.21084,-0.35147],[-78.21314,-0.35283],[-78.21467,-0.35539],[-78.21581,-0.36197],[-78.21855,-0.36322],[-78.22382,-0.36354],[-78.22541,-0.36502],[-78.22596,-0.36849],[-78.22932,-0.37247],[-78.23293,-0.37902],[-78.2406,-0.38196],[-78.24308,-0.38387],[-78.24347,-0.39122],[-78.24502,-0.39594],[-78.2483,-0.4008],[-78.25205,-0.40426],[-78.25388,-0.40474],[-78.256,-0.40848],[-78.25246,-0.41256],[-78.25264,-0.41402],[-78.24875,-0.42185],[-78.24879,-0.42571],[-78.24269,-0.42852],[-78.23853,-0.43502],[-78.23591,-0.43595],[-78.2371,-0.44126],[-78.23531,-0.45028],[-78.23698,-0.45366],[-78.23661,-0.45605],[-78.23829,-0.4573],[-78.23936,-0.46089],[-78.24031,-0.46135],[-78.24856,-0.45885],[-78.24732,-0.46143],[-78.24675,-0.46889],[-78.24774,-0.47262],[-78.25159,-0.47602],[-78.25259,-0.47846],[-78.2504,-0.48037],[-78.24988,-0.48242],[-78.25087,-0.4871],[-78.25327,-0.49106],[-78.25507,-0.50044],[-78.25477,-0.50314],[-78.25871,-0.50341],[-78.26196,-0.50511],[-78.26574,-0.50959],[-78.27011,-0.50977],[-78.27065,-0.51483],[-78.26787,-0.52188],[-78.26949,-0.52636],[-78.26558,-0.52868],[-78.26713,-0.53006],[-78.26745,-0.53461],[-78.27066,-0.53718],[-78.26997,-0.54179],[-78.27201,-0.54406],[-78.27409,-0.55126],[-78.27941,-0.5574],[-78.27924,-0.56229],[-78.28477,-0.56769],[-78.28492,-0.57411],[-78.28639,-0.57493],[-78.28753,-0.57853],[-78.29151,-0.57908],[-78.29353,-0.57741],[-78.29788,-0.57659],[-78.30007,-0.57787],[-78.30059,-0.58045],[-78.3015,-0.58059],[-78.30335,-0.58021],[-78.30593,-0.5774],[-78.30822,-0.57749],[-78.3118,-0.58079],[-78.31788,-0.58117],[-78.31993,-0.58307],[-78.32059,-0.59061],[-78.33125,-0.58844],[-78.33522,-0.58486],[-78.33596,-0.58013],[-78.34224,-0.57128],[-78.34998,-0.56994],[-78.35263,-0.5669],[-78.35309,-0.56413],[-78.3555,-0.56226],[-78.35915,-0.55675],[-78.35838,-0.55162],[-78.36331,-0.55172],[-78.36481,-0.55054],[-78.36704,-0.54804],[-78.36806,-0.54058],[-78.37183,-0.53804],[-78.37658,-0.53822],[-78.38452,-0.54331],[-78.38581,-0.54905],[-78.39358,-0.55688],[-78.39697,-0.5563],[-78.39941,-0.55796],[-78.40657,-0.56015],[-78.41432,-0.56492],[-78.41763,-0.56834],[-78.42392,-0.57112],[-78.42683,-0.57081],[-78.42942,-0.56598],[-78.43156,-0.55897],[-78.4321,-0.54742],[-78.4311,-0.54274],[-78.42871,-0.54082],[-78.42821,-0.53909],[-78.42672,-0.53124],[-78.42775,-0.52669],[-78.42591,-0.5236],[-78.42726,-0.51878],[-78.42959,-0.51592],[-78.43163,-0.50439],[-78.43337,-0.50276],[-78.433,-0.49944],[-78.43626,-0.496],[-78.43584,-0.49107],[-78.43353,-0.48928],[-78.43246,-0.48535],[-78.43017,-0.48492],[-78.42938,-0.48349],[-78.42853,-0.47869],[-78.42625,-0.47425],[-78.42616,-0.47038],[-78.42433,-0.46678],[-78.42506,-0.46023],[-78.42333,-0.45731],[-78.42362,-0.45634],[-78.42077,-0.45451],[-78.41551,-0.44517],[-78.41229,-0.44199],[-78.41263,-0.43831],[-78.41155,-0.43408],[-78.41239,-0.43271],[-78.40779,-0.41981],[-78.40679,-0.41324],[-78.40775,-0.41055],[-78.40603,-0.4098],[-78.40729,-0.40535],[-78.40605,-0.40388],[-78.40617,-0.40191],[-78.40231,-0.39934],[-78.3999,-0.39248],[-78.39676,-0.39102],[-78.39368,-0.38259],[-78.39645,-0.37773],[-78.39637,-0.37189],[-78.39932,-0.36963],[-78.40209,-0.36897],[-78.40182,-0.36562],[-78.40396,-0.3659],[-78.40548,-0.36186],[-78.40769,-0.36274],[-78.40754,-0.3598],[-78.40911,-0.35887],[-78.41007,-0.3565],[-78.40805,-0.35315],[-78.41224,-0.35296],[-78.41211,-0.34988],[-78.41617,-0.34766],[-78.41513,-0.34343],[-78.41804,-0.33916],[-78.41691,-0.33518],[-78.42018,-0.32776],[-78.42385,-0.32697],[-78.42413,-0.32475],[-78.42605,-0.32257],[-78.4302,-0.32154],[-78.43365,-0.31517],[-78.43713,-0.31462],[-78.44165,-0.30988],[-78.44784,-0.307],[-78.45239,-0.30364],[-78.45289,-0.30226],[-78.45411,-0.30252],[-78.45793,-0.29729],[-78.45954,-0.29727],[-78.46297,-0.29084],[-78.46281,-0.29804],[-78.46158,-0.29857],[-78.46303,-0.30234],[-78.46217,-0.3031],[-78.46199,-0.3065],[-78.46279,-0.30644],[-78.46402,-0.30965],[-78.46773,-0.31126],[-78.46915,-0.31474],[-78.4722,-0.31554],[-78.466,-0.32224],[-78.46637,-0.32403],[-78.46751,-0.32382],[-78.46683,-0.32509],[-78.46791,-0.32612],[-78.46748,-0.3273],[-78.46881,-0.32919],[-78.47634,-0.32628],[-78.48001,-0.33471],[-78.47295,-0.33675],[-78.47275,-0.33855],[-78.47373,-0.33945],[-78.47166,-0.34013],[-78.47203,-0.34123],[-78.46371,-0.34531],[-78.46748,-0.34943],[-78.46902,-0.34917],[-78.47222,-0.35529],[-78.47349,-0.35587],[-78.47278,-0.35831],[-78.4744,-0.36064],[-78.47442,-0.36459],[-78.47548,-0.36592],[-78.47431,-0.36643],[-78.47418,-0.36777],[-78.47224,-0.36727],[-78.46996,-0.36813],[-78.47269,-0.37246],[-78.47225,-0.37373],[-78.47061,-0.37419],[-78.47074,-0.37827],[-78.4647,-0.37988],[-78.46791,-0.38598],[-78.46773,-0.39017],[-78.47056,-0.39159],[-78.47177,-0.40022],[-78.47443,-0.40543],[-78.47187,-0.41637],[-78.47385,-0.41989],[-78.47463,-0.41978],[-78.47707,-0.4278],[-78.47673,-0.4371],[-78.47457,-0.43753],[-78.47385,-0.43612],[-78.47023,-0.44154],[-78.47111,-0.44751],[-78.47856,-0.45359],[-78.47996,-0.45699],[-78.48456,-0.4528],[-78.48722,-0.4486],[-78.49333,-0.4456],[-78.49534,-0.44032],[-78.49665,-0.43066],[-78.50351,-0.42349],[-78.51052,-0.40759],[-78.52146,-0.39808],[-78.51995,-0.39306],[-78.5178,-0.39039],[-78.51774,-0.38787],[-78.51641,-0.38715],[-78.51625,-0.38412],[-78.51731,-0.3831],[-78.5148,-0.38144],[-78.51559,-0.38095],[-78.51512,-0.37969],[-78.51344,-0.37971],[-78.51339,-0.37848],[-78.51137,-0.37788],[-78.51079,-0.37629],[-78.51173,-0.37449],[-78.5108,-0.37319],[-78.50948,-0.37314],[-78.50939,-0.37223],[-78.50826,-0.37278],[-78.50448,-0.37178],[-78.50519,-0.37028],[-78.50896,-0.3683],[-78.50841,-0.36617],[-78.50938,-0.36456],[-78.51153,-0.36409],[-78.51431,-0.36557],[-78.51625,-0.36414],[-78.52121,-0.36624],[-78.52544,-0.36536],[-78.52761,-0.36241],[-78.531,-0.36105],[-78.53177,-0.35947],[-78.53559,-0.35931],[-78.53666,-0.35836],[-78.53976,-0.3607],[-78.54507,-0.36226],[-78.54659,-0.36031],[-78.54848,-0.36077],[-78.5576,-0.35576],[-78.56223,-0.35912],[-78.56537,-0.35716],[-78.57208,-0.35586],[-78.57367,-0.35422],[-78.582,-0.35403],[-78.58508,-0.35501],[-78.59361,-0.35144],[-78.60225,-0.35069],[-78.6064,-0.35101],[-78.60814,-0.35368],[-78.61135,-0.35549],[-78.61523,-0.35598],[-78.61542,-0.35688],[-78.6192,-0.35622],[-78.62042,-0.3609],[-78.62158,-0.36113],[-78.62553,-0.35927],[-78.62881,-0.35906],[-78.6312,-0.36145],[-78.63579,-0.36168],[-78.6386,-0.36018],[-78.64627,-0.35973],[-78.65045,-0.35847],[-78.65581,-0.36062],[-78.66081,-0.36091],[-78.66703,-0.35197],[-78.66682,-0.34804],[-78.66867,-0.34007],[-78.67368,-0.33683],[-78.67304,-0.33504],[-78.67402,-0.33391],[-78.67444,-0.32994],[-78.67672,-0.32614],[-78.67921,-0.32454],[-78.68101,-0.32182],[-78.68323,-0.32258],[-78.68821,-0.32231],[-78.69241,-0.32018],[-78.69915,-0.32154],[-78.70398,-0.31962],[-78.70844,-0.32034],[-78.71396,-0.31812],[-78.72036,-0.32589],[-78.7236,-0.32496],[-78.726,-0.32152],[-78.73168,-0.31975],[-78.73066,-0.31671],[-78.73105,-0.3145],[-78.73431,-0.30964],[-78.73449,-0.30552],[-78.73696,-0.30119],[-78.73741,-0.29845],[-78.74086,-0.29809],[-78.74458,-0.29541],[-78.7456,-0.29189],[-78.74604,-0.27682],[-78.74902,-0.26984],[-78.74922,-0.26706],[-78.75334,-0.26088],[-78.75276,-0.25733],[-78.75953,-0.25074],[-78.75991,-0.24382],[-78.75884,-0.24292],[-78.75901,-0.24052],[-78.76185,-0.23841],[-78.76309,-0.23887],[-78.76555,-0.23774],[-78.76764,-0.23585],[-78.76995,-0.23103],[-78.77129,-0.23039],[-78.77166,-0.22749],[-78.77843,-0.2247],[-78.78393,-0.21187],[-78.78668,-0.21116],[-78.78793,-0.21407],[-78.79088,-0.21547],[-78.79142,-0.21455],[-78.79474,-0.21375],[-78.80218,-0.20619],[-78.80387,-0.20647],[-78.80533,-0.20436],[-78.80997,-0.20439],[-78.81347,-0.20077],[-78.81717,-0.19943],[-78.81788,-0.19803],[-78.82221,-0.19601],[-78.82853,-0.19035],[-78.83222,-0.18868],[-78.83252,-0.18673],[-78.83377,-0.18594],[-78.83412,-0.18416],[-78.83296,-0.18176],[-78.82944,-0.17872],[-78.83158,-0.1771],[-78.83252,-0.17495],[-78.83809,-0.17104],[-78.83961,-0.16713],[-78.84262,-0.16644],[-78.84006,-0.16111],[-78.83799,-0.16228],[-78.83559,-0.16112],[-78.8339,-0.16138],[-78.83311,-0.15952],[-78.83363,-0.15619],[-78.83565,-0.15504],[-78.83609,-0.15043],[-78.83382,-0.14155],[-78.83443,-0.14038],[-78.83665,-0.1396],[-78.83513,-0.13852],[-78.83541,-0.13732],[-78.83753,-0.13697],[-78.83768,-0.13509],[-78.83939,-0.13538],[-78.84022,-0.13427],[-78.83841,-0.12675],[-78.83518,-0.12549],[-78.83548,-0.1227],[-78.83343,-0.12239],[-78.83038,-0.1179],[-78.82858,-0.11754],[-78.82811,-0.11517],[-78.83184,-0.11435],[-78.83482,-0.11196],[-78.83529,-0.10909],[-78.83671,-0.10801],[-78.83615,-0.10481],[-78.83787,-0.10021],[-78.84061,-0.09976],[-78.84062,-0.0986],[-78.83832,-0.09808],[-78.83768,-0.09516],[-78.83574,-0.09431],[-78.8356,-0.09301],[-78.83386,-0.09282],[-78.83257,-0.09471],[-78.83287,-0.0978],[-78.83098,-0.09902],[-78.83001,-0.09862],[-78.82741,-0.10255],[-78.82555,-0.10306],[-78.82459,-0.1046],[-78.82219,-0.10373],[-78.82162,-0.10569],[-78.81862,-0.10443],[-78.8194,-0.10568],[-78.81815,-0.10767],[-78.8189,-0.11233],[-78.81733,-0.11328],[-78.79563,-0.10335],[-78.79308,-0.1069],[-78.79118,-0.10753],[-78.79033,-0.10999],[-78.78718,-0.11328],[-78.7827,-0.11427],[-78.77364,-0.11836],[-78.7607,-0.12654],[-78.75543,-0.12535],[-78.75181,-0.12777],[-78.7438,-0.12751],[-78.7433,-0.12846],[-78.7399,-0.12881],[-78.73303,-0.13348],[-78.73001,-0.13163],[-78.72517,-0.13126],[-78.72237,-0.12907],[-78.71905,-0.13047],[-78.71527,-0.12806],[-78.71028,-0.13001],[-78.70856,-0.12884],[-78.70613,-0.12969],[-78.70556,-0.13161],[-78.70518,-0.13079],[-78.70369,-0.13196],[-78.70177,-0.13123],[-78.70061,-0.13243],[-78.69516,-0.13105],[-78.69002,-0.13768],[-78.68503,-0.13768],[-78.68506,-0.13485],[-78.68317,-0.13468],[-78.6819,-0.1299],[-78.67804,-0.12871],[-78.66846,-0.1335],[-78.66666,-0.13549],[-78.65955,-0.13608],[-78.6591,-0.13289],[-78.66079,-0.1288],[-78.66025,-0.12363],[-78.65893,-0.12363],[-78.65961,-0.12104],[-78.65905,-0.11866],[-78.65716,-0.11421],[-78.6539,-0.11096],[-78.65357,-0.10775],[-78.65109,-0.10644],[-78.65112,-0.1027],[-78.64778,-0.10125],[-78.64783,-0.0993],[-78.64981,-0.09646],[-78.64858,-0.09356],[-78.64991,-0.09304],[-78.64945,-0.0918],[-78.65107,-0.08938],[-78.65035,-0.08562],[-78.65111,-0.08386],[-78.65092,-0.08143],[-78.64898,-0.07967],[-78.64753,-0.07629],[-78.64821,-0.07461],[-78.65124,-0.07219],[-78.65123,-0.06812],[-78.65843,-0.06193],[-78.66015,-0.05886],[-78.65522,-0.06039],[-78.6517,-0.05927],[-78.65066,-0.0606],[-78.63866,-0.06237],[-78.64153,-0.05468],[-78.64395,-0.05031],[-78.64795,-0.04641],[-78.64959,-0.04826],[-78.65198,-0.04465],[-78.65475,-0.04324],[-78.65729,-0.03785],[-78.65911,-0.03744],[-78.65971,-0.03534],[-78.65873,-0.03321],[-78.65972,-0.03117],[-78.65881,-0.03009],[-78.65884,-0.02754],[-78.6615,-0.02394],[-78.66257,-0.02411],[-78.66755,-0.01441],[-78.67119,-0.00967],[-78.67545,-0.00967],[-78.6763,-0.0119],[-78.67656,-0.01],[-78.6784,-0.0139],[-78.6779,-0.01436],[-78.67888,-0.01457],[-78.67855,-0.01333],[-78.67919,-0.01419],[-78.67866,-0.01663],[-78.68027,-0.01647],[-78.68063,-0.01848],[-78.68088,-0.01696],[-78.68127,-0.01626],[-78.68186,-0.01884],[-78.68072,-0.02023],[-78.68506,-0.0209],[-78.68682,-0.02502],[-78.68788,-0.02545],[-78.68697,-0.02666],[-78.69003,-0.02644],[-78.69481,-0.03046],[-78.69682,-0.03388],[-78.70059,-0.03573],[-78.70119,-0.03385],[-78.70425,-0.03144],[-78.70815,-0.03136],[-78.71192,-0.02818],[-78.71306,-0.0288],[-78.71775,-0.02546],[-78.72069,-0.02533],[-78.72237,-0.02249],[-78.72474,-0.02133],[-78.72433,-0.01926],[-78.72545,-0.01649],[-78.72259,-0.01232],[-78.72449,-0.00676],[-78.72574,-0.00564],[-78.72559,-0.00246],[-78.72674,-0.00138],[-78.72742,-0.00187],[-78.72879,0.00149],[-78.73029,0.00157],[-78.7311,0.00679],[-78.73422,0.01084],[-78.74029,0.01311],[-78.74306,0.0125],[-78.74511,0.01524],[-78.74495,0.01769],[-78.74703,0.01686],[-78.7514,0.021],[-78.75535,0.0195],[-78.75794,0.02123],[-78.75784,0.02231],[-78.75867,0.02218],[-78.75974,0.02563],[-78.76112,0.02509],[-78.76239,0.02675],[-78.76533,0.02694],[-78.76773,0.03027],[-78.77349,0.03071],[-78.77793,0.03432],[-78.77875,0.0335],[-78.78098,0.03433],[-78.78722,0.03205],[-78.78823,0.03087],[-78.78865,0.02714],[-78.79004,0.0263],[-78.7897,0.02496],[-78.79073,0.02491],[-78.79139,0.02631],[-78.7925,0.02468],[-78.7932,0.02535],[-78.79359,0.02379],[-78.79875,0.02624],[-78.80071,0.02939],[-78.79927,0.03174],[-78.8001,0.0335],[-78.80127,0.03246],[-78.80208,0.03381],[-78.805,0.03282],[-78.80545,0.03445],[-78.81033,0.03287],[-78.81149,0.0355],[-78.81339,0.03481],[-78.81684,0.03527],[-78.81784,0.03673],[-78.81853,0.0353],[-78.81918,0.03575],[-78.82103,0.03463],[-78.82012,0.03748],[-78.82066,0.03813],[-78.82253,0.03588],[-78.83009,0.03887],[-78.8319,0.03877],[-78.83375,0.04047],[-78.83493,0.03975],[-78.83607,0.041],[-78.83698,0.04041],[-78.83851,0.04291],[-78.84054,0.04249],[-78.84136,0.04572],[-78.84288,0.0443],[-78.84394,0.04505],[-78.84109,0.04847],[-78.84446,0.04748],[-78.84341,0.04944],[-78.85077,0.05071],[-78.85472,0.05435],[-78.85909,0.05402],[-78.85965,0.0565],[-78.86156,0.05752],[-78.86456,0.05763],[-78.86671,0.0552],[-78.86894,0.05871],[-78.87193,0.05852],[-78.87427,0.06105],[-78.87863,0.06057],[-78.88243,0.06159],[-78.88385,0.0606],[-78.88533,0.0621],[-78.88699,0.06068],[-78.88648,0.06569],[-78.88859,0.06416],[-78.89124,0.06811],[-78.89885,0.06798],[-78.90127,0.07009],[-78.89954,0.07398],[-78.90111,0.07643],[-78.907,0.07675],[-78.90754,0.07507],[-78.90907,0.07461],[-78.91214,0.07783],[-78.91429,0.07743],[-78.91685,0.08042],[-78.92204,0.07924],[-78.92158,0.08278],[-78.92506,0.08382],[-78.92513,0.08723],[-78.92719,0.0879],[-78.92904,0.08996],[-78.92966,0.09288],[-78.9316,0.09131],[-78.93323,0.09271],[-78.93225,0.09658],[-78.93674,0.10306],[-78.93502,0.10723],[-78.93833,0.11047],[-78.93847,0.11625],[-78.93962,0.11786],[-78.93496,0.12411],[-78.93429,0.12677],[-78.93498,0.12938],[-78.93754,0.13131],[-78.93822,0.13504],[-78.93384,0.13887],[-78.93249,0.14529],[-78.93616,0.14841],[-78.93483,0.15193],[-78.93556,0.15536],[-78.93807,0.1595],[-78.93637,0.16492],[-78.93751,0.16845],[-78.93575,0.17467],[-78.939,0.18075],[-78.9379,0.18202],[-78.94035,0.18628],[-78.93959,0.18824],[-78.94102,0.18897],[-78.93926,0.18954],[-78.93966,0.19096],[-78.93793,0.19248],[-78.94166,0.19685],[-78.9445,0.1958],[-78.94387,0.19778],[-78.94741,0.20233],[-78.94769,0.20392],[-78.94457,0.20399],[-78.94044,0.20589],[-78.93596,0.21243],[-78.93319,0.21416],[-78.9307,0.21397],[-78.9287,0.21894],[-78.92446,0.22161],[-78.92261,0.22118],[-78.91987,0.21794],[-78.91848,0.21445],[-78.9138,0.21502],[-78.90989,0.21326],[-78.90312,0.21588],[-78.89502,0.21759],[-78.8938,0.22037],[-78.88585,0.22135],[-78.88274,0.2229],[-78.88063,0.2223],[-78.87655,0.22934],[-78.8727,0.23089],[-78.87019,0.23366],[-78.86374,0.23248],[-78.85595,0.23763],[-78.84954,0.23769],[-78.8436,0.24011],[-78.84093,0.239],[-78.83779,0.23941],[-78.83303,0.24154],[-78.83248,0.2395],[-78.83017,0.23812],[-78.82564,0.23741],[-78.82317,0.23352],[-78.8203,0.23343],[-78.81115,0.23053],[-78.80837,0.2319],[-78.80286,0.23203],[-78.7957,0.23684],[-78.79222,0.2365],[-78.78829,0.23935],[-78.78575,0.23865],[-78.78158,0.23992],[-78.77703,0.24335],[-78.77349,0.24123],[-78.76891,0.24211],[-78.76488,0.23811],[-78.7628,0.23949],[-78.76171,0.23822],[-78.75993,0.23813],[-78.75426,0.24039],[-78.75035,0.2348],[-78.74625,0.23563],[-78.74392,0.23489],[-78.73523,0.22686],[-78.72927,0.22456],[-78.72711,0.22499],[-78.72435,0.2219],[-78.72168,0.22159],[-78.71831,0.21957],[-78.71142,0.21932],[-78.70911,0.21547],[-78.70537,0.21828],[-78.69929,0.21705],[-78.69746,0.22175],[-78.69153,0.22149],[-78.68782,0.22304],[-78.68563,0.22135],[-78.68395,0.22341],[-78.6826,0.2235],[-78.68094,0.22288],[-78.68236,0.21989],[-78.68222,0.21563],[-78.67503,0.21051],[-78.66921,0.21234],[-78.66617,0.21506],[-78.66354,0.21461],[-78.66251,0.21339],[-78.66161,0.21378],[-78.6614,0.21548],[-78.65909,0.21478],[-78.65672,0.21648],[-78.65363,0.21382],[-78.64957,0.21485],[-78.64891,0.2131],[-78.64774,0.21292],[-78.64728,0.20983],[-78.645,0.21016],[-78.64261,0.2075],[-78.64063,0.20846],[-78.63817,0.20645],[-78.63555,0.20727],[-78.63302,0.21039],[-78.63062,0.20975],[-78.63029,0.21358],[-78.62846,0.21431],[-78.62686,0.21705],[-78.62515,0.21803],[-78.6214,0.21604],[-78.61994,0.21716],[-78.61743,0.21689],[-78.61756,0.21975],[-78.61597,0.2188],[-78.6153,0.22073],[-78.61026,0.21884],[-78.60947,0.21765],[-78.60682,0.21804],[-78.60531,0.21666],[-78.6026,0.21759],[-78.60495,0.22023],[-78.60101,0.22247],[-78.5986,0.22216],[-78.59659,0.22365],[-78.59562,0.2227],[-78.5948,0.22338],[-78.59333,0.22258],[-78.59176,0.2234],[-78.58869,0.22292],[-78.58377,0.225],[-78.5779,0.22433],[-78.57583,0.22533],[-78.57056,0.22285],[-78.56879,0.22369],[-78.56613,0.22245],[-78.56331,0.21566],[-78.56403,0.21412],[-78.56216,0.21033],[-78.56225,0.20794],[-78.56125,0.20722],[-78.55626,0.20681],[-78.55551,0.208],[-78.55513,0.20671],[-78.55339,0.20749],[-78.55232,0.20469],[-78.5499,0.20497],[-78.54901,0.20415],[-78.54778,0.20475],[-78.54781,0.20605],[-78.54552,0.20592],[-78.54418,0.20705],[-78.54174,0.20578],[-78.54131,0.20656],[-78.53731,0.20548],[-78.53718,0.207],[-78.53529,0.20655],[-78.53462,0.2078],[-78.53358,0.20776],[-78.5329,0.20916],[-78.53387,0.20965],[-78.53381,0.21152],[-78.53029,0.2125],[-78.52716,0.21213],[-78.52391,0.21357],[-78.51943,0.22037],[-78.51928,0.22801],[-78.5183,0.22826],[-78.51716,0.22667],[-78.51632,0.22744],[-78.51304,0.2261],[-78.51016,0.22657],[-78.51016,0.24383],[-78.50522,0.2473],[-78.50482,0.24917],[-78.50247,0.2518],[-78.49463,0.25896],[-78.4969,0.27731],[-78.49461,0.2739]]]}},{"type":"Feature","properties":{"canton":"Cayambe","canton_full":"CAYAMBE","nombre":"Cayambe","color":"#d97706","codcan":"065","bbox":[-78.32365,-0.19139,-77.83952,0.19295]},"geometry":{"type":"Polygon","coordinates":[[[-78.05237,0.19295],[-78.04531,0.19084],[-78.03907,0.18362],[-78.03391,0.1822],[-78.03213,0.18233],[-78.03131,0.1883],[-78.02398,0.18836],[-78.02303,0.18611],[-78.01826,0.18181],[-78.01078,0.17866],[-78.0079,0.17474],[-78.00473,0.17446],[-78.00189,0.17204],[-77.99786,0.17315],[-77.98979,0.17208],[-77.98462,0.17385],[-77.97933,0.16988],[-77.96679,0.16858],[-77.96608,0.16719],[-77.96652,0.15997],[-77.96486,0.15724],[-77.96474,0.15262],[-77.96782,0.14863],[-77.97062,0.14681],[-77.97204,0.14334],[-77.97258,0.14086],[-77.97048,0.13682],[-77.97431,0.13144],[-77.97529,0.12771],[-77.97274,0.12344],[-77.97475,0.12223],[-77.97481,0.11679],[-77.97646,0.11235],[-77.97875,0.10986],[-77.97674,0.10559],[-77.97484,0.10854],[-77.97153,0.11101],[-77.96831,0.11179],[-77.96746,0.11069],[-77.96567,0.11057],[-77.96226,0.11285],[-77.95361,0.10843],[-77.95301,0.10664],[-77.94597,0.0993],[-77.94072,0.10135],[-77.93763,0.10379],[-77.93535,0.10317],[-77.9343,0.10071],[-77.92995,0.09713],[-77.92913,0.09369],[-77.92521,0.09106],[-77.9244,0.08817],[-77.91824,0.08176],[-77.91341,0.08055],[-77.91118,0.08264],[-77.90393,0.08266],[-77.90216,0.08447],[-77.89906,0.08481],[-77.89007,0.08311],[-77.88391,0.07583],[-77.88158,0.07657],[-77.87908,0.07543],[-77.87685,0.07041],[-77.87091,0.06924],[-77.86366,0.06291],[-77.8615,0.06327],[-77.86025,0.06173],[-77.85938,0.06225],[-77.8571,0.05349],[-77.85888,0.05146],[-77.85833,0.03982],[-77.85743,0.03859],[-77.85785,0.03323],[-77.855,0.02509],[-77.85186,0.02314],[-77.8483,0.02437],[-77.84533,0.02762],[-77.84441,0.02669],[-77.83983,0.02727],[-77.83952,0.02623],[-77.84103,0.02387],[-77.84463,0.02085],[-77.84256,0.01988],[-77.84007,0.0169],[-77.84115,0.01529],[-77.84391,0.01522],[-77.84428,0.013],[-77.84349,0.01123],[-77.84469,0.01058],[-77.84391,0.00789],[-77.84497,0.00714],[-77.84487,0.00386],[-77.85161,-0.00075],[-77.85118,-0.00212],[-77.85272,-0.0041],[-77.86337,-0.00544],[-77.86471,-0.00781],[-77.86806,-0.00719],[-77.87031,-0.00839],[-77.87326,-0.01288],[-77.87909,-0.01387],[-77.88024,-0.0144],[-77.88069,-0.01602],[-77.88362,-0.0158],[-77.88706,-0.01814],[-77.88875,-0.01766],[-77.89532,-0.02187],[-77.89971,-0.02258],[-77.90173,-0.02407],[-77.90378,-0.02393],[-77.908,-0.02766],[-77.91323,-0.02722],[-77.91625,-0.02895],[-77.91917,-0.02884],[-77.92113,-0.03052],[-77.92224,-0.03027],[-77.92457,-0.03373],[-77.93453,-0.04121],[-77.93806,-0.04947],[-77.94025,-0.05127],[-77.94119,-0.05095],[-77.94144,-0.05217],[-77.94279,-0.05129],[-77.94343,-0.05297],[-77.93852,-0.05793],[-77.93709,-0.06392],[-77.93494,-0.0674],[-77.93464,-0.0715],[-77.93674,-0.07295],[-77.93685,-0.07694],[-77.93852,-0.07882],[-77.93904,-0.08328],[-77.938,-0.08508],[-77.93455,-0.08624],[-77.93246,-0.08587],[-77.93227,-0.08763],[-77.93117,-0.08788],[-77.93097,-0.09039],[-77.93365,-0.09673],[-77.93282,-0.10044],[-77.9405,-0.09842],[-77.94444,-0.0951],[-77.94876,-0.09635],[-77.95489,-0.09505],[-77.95801,-0.09915],[-77.95978,-0.10387],[-77.96159,-0.105],[-77.96272,-0.10983],[-77.96725,-0.11173],[-77.96957,-0.12278],[-77.97313,-0.11987],[-77.97582,-0.1195],[-77.97745,-0.12167],[-77.98094,-0.11859],[-77.98528,-0.11757],[-77.98792,-0.11542],[-77.99102,-0.1104],[-77.99546,-0.11116],[-78.00061,-0.1195],[-78.00003,-0.12828],[-78.00091,-0.1288],[-78.00271,-0.12733],[-78.00909,-0.12977],[-78.00916,-0.13188],[-78.01201,-0.1321],[-78.01373,-0.13357],[-78.01496,-0.13543],[-78.01513,-0.13839],[-78.01889,-0.14104],[-78.02361,-0.13929],[-78.02516,-0.13961],[-78.02626,-0.13819],[-78.03056,-0.1388],[-78.03335,-0.14079],[-78.04024,-0.1383],[-78.04583,-0.14122],[-78.04905,-0.14411],[-78.05775,-0.14622],[-78.05956,-0.14946],[-78.05725,-0.1509],[-78.05651,-0.15456],[-78.05563,-0.15514],[-78.05424,-0.16116],[-78.0551,-0.16377],[-78.05722,-0.16477],[-78.05762,-0.16605],[-78.06124,-0.16744],[-78.06223,-0.1751],[-78.07022,-0.17652],[-78.07042,-0.18312],[-78.07366,-0.18513],[-78.07448,-0.18419],[-78.076,-0.18461],[-78.07765,-0.18272],[-78.0792,-0.18282],[-78.0825,-0.18868],[-78.0845,-0.18985],[-78.08795,-0.18741],[-78.08869,-0.18383],[-78.0908,-0.18013],[-78.09833,-0.18989],[-78.10086,-0.19139],[-78.10512,-0.18724],[-78.10783,-0.17954],[-78.11135,-0.1809],[-78.11689,-0.17895],[-78.12048,-0.18084],[-78.12476,-0.18093],[-78.12827,-0.17893],[-78.13058,-0.17631],[-78.1306,-0.17117],[-78.13197,-0.16744],[-78.14048,-0.16678],[-78.14375,-0.17125],[-78.14972,-0.17334],[-78.15526,-0.17275],[-78.15812,-0.17756],[-78.1581,-0.18162],[-78.15944,-0.18396],[-78.16254,-0.18699],[-78.16706,-0.18689],[-78.16894,-0.18047],[-78.1651,-0.17775],[-78.16609,-0.1731],[-78.16986,-0.17085],[-78.17026,-0.16873],[-78.17477,-0.16532],[-78.17748,-0.1599],[-78.17996,-0.15702],[-78.18129,-0.1572],[-78.18392,-0.15384],[-78.19563,-0.15006],[-78.20723,-0.14176],[-78.2209,-0.13767],[-78.22993,-0.1335],[-78.23383,-0.13486],[-78.23643,-0.13266],[-78.24275,-0.13128],[-78.24554,-0.12812],[-78.25001,-0.12711],[-78.25161,-0.12379],[-78.25423,-0.12249],[-78.25894,-0.12453],[-78.26532,-0.1249],[-78.26902,-0.12375],[-78.27086,-0.12492],[-78.27332,-0.12388],[-78.27354,-0.12291],[-78.27652,-0.12256],[-78.27652,-0.12026],[-78.26522,-0.12156],[-78.25601,-0.11787],[-78.24589,-0.11718],[-78.23685,-0.11528],[-78.23315,-0.10916],[-78.226,-0.1069],[-78.21916,-0.10273],[-78.21659,-0.09665],[-78.21431,-0.09422],[-78.21316,-0.08607],[-78.21441,-0.08758],[-78.22084,-0.08903],[-78.22283,-0.09091],[-78.22536,-0.09135],[-78.24254,-0.08841],[-78.25116,-0.09549],[-78.25937,-0.09915],[-78.27569,-0.09826],[-78.2796,-0.09555],[-78.28172,-0.09567],[-78.28737,-0.09358],[-78.29241,-0.08994],[-78.30167,-0.08962],[-78.30401,-0.08692],[-78.30529,-0.08114],[-78.30711,-0.07899],[-78.30834,-0.0716],[-78.30975,-0.07035],[-78.31052,-0.06664],[-78.30837,-0.0651],[-78.30534,-0.06453],[-78.30239,-0.06128],[-78.29879,-0.06128],[-78.29585,-0.05693],[-78.2961,-0.0556],[-78.29461,-0.05277],[-78.29124,-0.05277],[-78.28791,-0.0557],[-78.27846,-0.05914],[-78.27341,-0.05772],[-78.27303,-0.05636],[-78.28087,-0.05379],[-78.28586,-0.04951],[-78.29128,-0.04346],[-78.29258,-0.04059],[-78.29589,-0.03844],[-78.29724,-0.03588],[-78.29758,-0.03259],[-78.29685,-0.0314],[-78.29803,-0.02914],[-78.3004,-0.02883],[-78.30496,-0.02561],[-78.30683,-0.02627],[-78.30749,-0.02982],[-78.30964,-0.02902],[-78.31305,-0.02558],[-78.31557,-0.02609],[-78.31656,-0.02503],[-78.31869,-0.02537],[-78.31974,-0.0222],[-78.32119,-0.02134],[-78.32086,-0.02027],[-78.32365,-0.01994],[-78.31823,-0.01961],[-78.31817,-0.01732],[-78.31602,-0.01665],[-78.31467,-0.01288],[-78.31275,-0.01431],[-78.31111,-0.01347],[-78.3074,-0.01396],[-78.30402,-0.01009],[-78.30426,-0.00795],[-78.3008,-0.00451],[-78.29289,-0.00535],[-78.2868,-0.00304],[-78.28666,-0.00459],[-78.28393,-0.00586],[-78.28169,-0.00845],[-78.27929,-0.00579],[-78.27931,-0.00201],[-78.27699,-0.00246],[-78.26976,0.00013],[-78.26823,-0.00173],[-78.26695,-0.00183],[-78.26451,0.00174],[-78.26388,-0.00152],[-78.26158,-0.00293],[-78.2592,-0.00229],[-78.25699,-0.00626],[-78.25495,-0.00708],[-78.25447,-0.00881],[-78.24743,-0.00406],[-78.24204,-0.00466],[-78.23991,0.00163],[-78.23111,0.00123],[-78.22919,0.00689],[-78.22664,0.00639],[-78.22279,0.00737],[-78.22135,0.01062],[-78.2192,0.00934],[-78.21703,0.0101],[-78.21599,0.01167],[-78.21711,0.01314],[-78.21648,0.01556],[-78.2138,0.0169],[-78.21476,0.01889],[-78.21411,0.02055],[-78.21325,0.0193],[-78.21106,0.01991],[-78.20895,0.01817],[-78.20514,0.01715],[-78.20215,0.01761],[-78.20183,0.01305],[-78.19998,0.01208],[-78.20058,0.01033],[-78.19841,0.00877],[-78.19833,0.00637],[-78.19639,0.00403],[-78.19335,0.00236],[-78.19323,0.00086],[-78.19058,-0.00221],[-78.18901,-0.00309],[-78.18131,-0.00306],[-78.1801,0.00175],[-78.18079,0.0033],[-78.17882,0.00516],[-78.17865,0.00772],[-78.17396,0.00886],[-78.1741,0.0108],[-78.17272,0.01147],[-78.17334,0.01286],[-78.17274,0.01394],[-78.1738,0.01442],[-78.17349,0.01683],[-78.17034,0.02027],[-78.16921,0.02018],[-78.16818,0.02455],[-78.16652,0.027],[-78.16772,0.03458],[-78.1692,0.03728],[-78.16878,0.03829],[-78.16979,0.0385],[-78.16953,0.03985],[-78.17041,0.04031],[-78.17037,0.043],[-78.16874,0.04461],[-78.16934,0.0454],[-78.16742,0.04834],[-78.16811,0.04978],[-78.16659,0.05021],[-78.16662,0.05176],[-78.1654,0.05189],[-78.16544,0.0542],[-78.16309,0.05714],[-78.16369,0.06194],[-78.16506,0.06246],[-78.16429,0.06431],[-78.1649,0.06528],[-78.16359,0.06677],[-78.16487,0.07109],[-78.1639,0.07233],[-78.16647,0.07668],[-78.16639,0.07894],[-78.16477,0.0814],[-78.16342,0.08174],[-78.16245,0.08591],[-78.16842,0.09001],[-78.16603,0.09398],[-78.16831,0.09852],[-78.17029,0.09913],[-78.1724,0.10651],[-78.1725,0.11085],[-78.17667,0.11323],[-78.17799,0.11892],[-78.18137,0.12151],[-78.18065,0.12518],[-78.18469,0.1301],[-78.18557,0.13594],[-78.17922,0.1348],[-78.17681,0.13712],[-78.17068,0.1382],[-78.16341,0.14202],[-78.15398,0.1412],[-78.15092,0.1464],[-78.14622,0.1496],[-78.14836,0.1588],[-78.14732,0.15719],[-78.1341,0.1527],[-78.12283,0.15566],[-78.12035,0.15511],[-78.11474,0.15678],[-78.11334,0.15631],[-78.10799,0.15834],[-78.10483,0.16194],[-78.10106,0.16864],[-78.09826,0.17082],[-78.0963,0.17904],[-78.09255,0.18728],[-78.09074,0.1843],[-78.09166,0.18111],[-78.08931,0.18502],[-78.08813,0.18935],[-78.08479,0.18659],[-78.07979,0.18659],[-78.07979,0.19058],[-78.07735,0.18881],[-78.05771,0.18903],[-78.05237,0.19295]]]}},{"type":"Feature","properties":{"canton":"Mejía","canton_full":"MEJÍA","nombre":"Mejía","color":"#9333ea","codcan":"70","bbox":[-78.95485,-0.67708,-78.32059,-0.27742]},"geometry":{"type":"Polygon","coordinates":[[[-78.74613,-0.27742],[-78.74556,-0.29235],[-78.74458,-0.29541],[-78.74086,-0.29809],[-78.73741,-0.29845],[-78.73696,-0.30119],[-78.73449,-0.30552],[-78.73431,-0.30964],[-78.73105,-0.3145],[-78.73066,-0.31671],[-78.73168,-0.31975],[-78.726,-0.32152],[-78.7236,-0.32496],[-78.72036,-0.32589],[-78.71396,-0.31812],[-78.70844,-0.32034],[-78.70398,-0.31962],[-78.69915,-0.32154],[-78.69241,-0.32018],[-78.68821,-0.32231],[-78.68323,-0.32258],[-78.68101,-0.32182],[-78.67921,-0.32454],[-78.67672,-0.32614],[-78.67444,-0.32994],[-78.67402,-0.33391],[-78.67304,-0.33504],[-78.67368,-0.33683],[-78.66867,-0.34007],[-78.66682,-0.34804],[-78.66703,-0.35197],[-78.66081,-0.36091],[-78.65581,-0.36062],[-78.65045,-0.35847],[-78.64627,-0.35973],[-78.6386,-0.36018],[-78.63579,-0.36168],[-78.6312,-0.36145],[-78.62881,-0.35906],[-78.62553,-0.35927],[-78.62158,-0.36113],[-78.62042,-0.3609],[-78.6192,-0.35622],[-78.61542,-0.35688],[-78.61523,-0.35598],[-78.61135,-0.35549],[-78.60814,-0.35368],[-78.6064,-0.35101],[-78.60225,-0.35069],[-78.59361,-0.35144],[-78.58508,-0.35501],[-78.582,-0.35403],[-78.57367,-0.35422],[-78.57208,-0.35586],[-78.56537,-0.35716],[-78.56223,-0.35912],[-78.5576,-0.35576],[-78.54848,-0.36077],[-78.54659,-0.36031],[-78.54507,-0.36226],[-78.53976,-0.3607],[-78.53666,-0.35836],[-78.53559,-0.35931],[-78.53177,-0.35947],[-78.531,-0.36105],[-78.52761,-0.36241],[-78.52544,-0.36536],[-78.52121,-0.36624],[-78.51625,-0.36414],[-78.51431,-0.36557],[-78.51153,-0.36409],[-78.50936,-0.36457],[-78.50841,-0.36617],[-78.50896,-0.3683],[-78.50519,-0.37028],[-78.50448,-0.37178],[-78.50826,-0.37278],[-78.50939,-0.37223],[-78.50948,-0.37314],[-78.5108,-0.37319],[-78.51173,-0.37449],[-78.51079,-0.37629],[-78.51137,-0.37788],[-78.51339,-0.37848],[-78.51344,-0.37971],[-78.51512,-0.37969],[-78.51559,-0.38095],[-78.5148,-0.38144],[-78.51731,-0.3831],[-78.51625,-0.38412],[-78.51641,-0.38715],[-78.51774,-0.38787],[-78.5178,-0.39039],[-78.51995,-0.39306],[-78.52146,-0.39808],[-78.51052,-0.40759],[-78.50351,-0.42349],[-78.49665,-0.43066],[-78.49534,-0.44032],[-78.49333,-0.4456],[-78.48722,-0.4486],[-78.48456,-0.4528],[-78.47958,-0.45707],[-78.48065,-0.46641],[-78.48451,-0.47021],[-78.48169,-0.47269],[-78.47376,-0.47491],[-78.46625,-0.48241],[-78.46616,-0.48902],[-78.47006,-0.49555],[-78.46853,-0.50466],[-78.46691,-0.50658],[-78.46479,-0.50736],[-78.46238,-0.50607],[-78.46122,-0.50673],[-78.45821,-0.50418],[-78.45687,-0.50462],[-78.4561,-0.50291],[-78.45317,-0.50211],[-78.4519,-0.5001],[-78.44996,-0.50029],[-78.44638,-0.49632],[-78.44382,-0.49558],[-78.43728,-0.48674],[-78.43555,-0.48573],[-78.43271,-0.48601],[-78.43354,-0.4893],[-78.43582,-0.49101],[-78.43631,-0.49575],[-78.433,-0.49944],[-78.43337,-0.50276],[-78.43163,-0.50439],[-78.42959,-0.51592],[-78.42727,-0.51876],[-78.42601,-0.52273],[-78.42775,-0.52669],[-78.42672,-0.53124],[-78.42821,-0.53909],[-78.42871,-0.54082],[-78.43112,-0.54277],[-78.43211,-0.54761],[-78.43129,-0.56071],[-78.42686,-0.57078],[-78.42392,-0.57112],[-78.41826,-0.5687],[-78.41432,-0.56492],[-78.40573,-0.55978],[-78.39941,-0.55796],[-78.39697,-0.5563],[-78.39348,-0.55682],[-78.38577,-0.54899],[-78.38452,-0.54331],[-78.37658,-0.53822],[-78.37183,-0.53804],[-78.36806,-0.54058],[-78.36704,-0.54804],[-78.36481,-0.55054],[-78.36331,-0.55172],[-78.35838,-0.55162],[-78.35915,-0.55675],[-78.3555,-0.56226],[-78.35309,-0.56413],[-78.35263,-0.5669],[-78.34998,-0.56994],[-78.34224,-0.57128],[-78.33596,-0.58013],[-78.33522,-0.58486],[-78.33125,-0.58844],[-78.32059,-0.59061],[-78.32198,-0.60491],[-78.32683,-0.61454],[-78.3245,-0.61789],[-78.32313,-0.61838],[-78.32172,-0.62164],[-78.32084,-0.62497],[-78.32124,-0.62809],[-78.32549,-0.63543],[-78.3265,-0.64182],[-78.32975,-0.64546],[-78.3302,-0.65882],[-78.3326,-0.65766],[-78.33786,-0.65965],[-78.34092,-0.6596],[-78.3422,-0.66236],[-78.34593,-0.66568],[-78.35061,-0.66651],[-78.36295,-0.67646],[-78.3689,-0.6736],[-78.39476,-0.67708],[-78.39647,-0.67651],[-78.37151,-0.67287],[-78.36352,-0.66179],[-78.3661,-0.65748],[-78.36846,-0.65681],[-78.37006,-0.6502],[-78.37503,-0.64],[-78.38026,-0.63383],[-78.38349,-0.63139],[-78.38492,-0.6313],[-78.38568,-0.62866],[-78.38883,-0.62647],[-78.39254,-0.62652],[-78.39527,-0.62522],[-78.39673,-0.62324],[-78.40113,-0.62358],[-78.40297,-0.62207],[-78.40907,-0.6235],[-78.40763,-0.61981],[-78.40923,-0.61754],[-78.40691,-0.61238],[-78.4086,-0.61211],[-78.4102,-0.61385],[-78.41073,-0.61219],[-78.41232,-0.61273],[-78.41224,-0.61138],[-78.41367,-0.61177],[-78.41399,-0.61318],[-78.41549,-0.61314],[-78.41437,-0.61001],[-78.41498,-0.60809],[-78.41628,-0.60763],[-78.41923,-0.60905],[-78.41989,-0.61345],[-78.42194,-0.60907],[-78.42404,-0.60808],[-78.42584,-0.60461],[-78.4299,-0.6009],[-78.43074,-0.60407],[-78.43436,-0.60628],[-78.437,-0.61199],[-78.44219,-0.61249],[-78.44299,-0.61503],[-78.44551,-0.61555],[-78.4462,-0.61683],[-78.44511,-0.61876],[-78.4484,-0.61792],[-78.45082,-0.62076],[-78.45434,-0.62057],[-78.45762,-0.61596],[-78.45773,-0.61142],[-78.45663,-0.60891],[-78.46445,-0.60973],[-78.47045,-0.61613],[-78.47316,-0.61312],[-78.47356,-0.61321],[-78.47324,-0.61376],[-78.47565,-0.61534],[-78.47554,-0.61881],[-78.47723,-0.61856],[-78.4799,-0.62223],[-78.48026,-0.62511],[-78.47894,-0.62806],[-78.4811,-0.63382],[-78.4828,-0.63099],[-78.48414,-0.63347],[-78.48784,-0.6368],[-78.48874,-0.63596],[-78.48885,-0.63238],[-78.49024,-0.63084],[-78.4921,-0.63175],[-78.49132,-0.62623],[-78.49294,-0.62464],[-78.49531,-0.62944],[-78.49862,-0.6253],[-78.49977,-0.62575],[-78.49776,-0.63107],[-78.49886,-0.63373],[-78.50008,-0.63212],[-78.50227,-0.63366],[-78.50334,-0.63269],[-78.50464,-0.63328],[-78.50761,-0.6295],[-78.50957,-0.63347],[-78.51592,-0.63462],[-78.51826,-0.62967],[-78.52064,-0.63056],[-78.52177,-0.62941],[-78.52276,-0.63048],[-78.52349,-0.62951],[-78.52623,-0.63027],[-78.52687,-0.62907],[-78.52842,-0.6291],[-78.52827,-0.62708],[-78.5302,-0.6281],[-78.53045,-0.62523],[-78.53188,-0.62601],[-78.53418,-0.62453],[-78.53786,-0.62659],[-78.53767,-0.62305],[-78.5386,-0.62151],[-78.53782,-0.6197],[-78.54193,-0.62866],[-78.54441,-0.63145],[-78.54874,-0.63129],[-78.55136,-0.63383],[-78.55347,-0.6317],[-78.55304,-0.63094],[-78.55525,-0.63227],[-78.55721,-0.63089],[-78.55779,-0.62867],[-78.55602,-0.62703],[-78.55723,-0.62735],[-78.55655,-0.62456],[-78.55877,-0.61929],[-78.55882,-0.61628],[-78.55967,-0.61622],[-78.55895,-0.61409],[-78.55966,-0.61275],[-78.56083,-0.61326],[-78.56164,-0.61171],[-78.56727,-0.61004],[-78.57138,-0.61023],[-78.57417,-0.61207],[-78.57607,-0.61148],[-78.57941,-0.61787],[-78.58717,-0.60999],[-78.58856,-0.60934],[-78.5906,-0.61076],[-78.59436,-0.60761],[-78.59977,-0.6078],[-78.608,-0.60231],[-78.61103,-0.59929],[-78.61155,-0.59749],[-78.61753,-0.60154],[-78.61857,-0.6045],[-78.6181,-0.60654],[-78.63983,-0.62003],[-78.64122,-0.63204],[-78.64285,-0.63445],[-78.64235,-0.63626],[-78.64812,-0.64281],[-78.65753,-0.63654],[-78.66188,-0.64058],[-78.66425,-0.64803],[-78.66523,-0.6489],[-78.66711,-0.64872],[-78.67179,-0.65191],[-78.6796,-0.65385],[-78.68357,-0.65611],[-78.68648,-0.65616],[-78.69112,-0.65944],[-78.70031,-0.65841],[-78.70747,-0.66047],[-78.7099,-0.6628],[-78.71377,-0.66032],[-78.71514,-0.66099],[-78.71586,-0.66306],[-78.72037,-0.64923],[-78.73074,-0.64106],[-78.73467,-0.63991],[-78.73542,-0.63746],[-78.73432,-0.6288],[-78.73913,-0.62196],[-78.73883,-0.61822],[-78.73678,-0.615],[-78.73488,-0.60858],[-78.73615,-0.60621],[-78.73599,-0.60339],[-78.73311,-0.59779],[-78.73031,-0.59649],[-78.72833,-0.58902],[-78.72829,-0.58672],[-78.73038,-0.58158],[-78.73086,-0.57331],[-78.73003,-0.57226],[-78.73011,-0.56891],[-78.7327,-0.56584],[-78.73227,-0.56265],[-78.73342,-0.55966],[-78.73522,-0.55889],[-78.73769,-0.55948],[-78.741,-0.55697],[-78.74394,-0.55721],[-78.74513,-0.55432],[-78.74804,-0.55384],[-78.7509,-0.55026],[-78.75233,-0.5501],[-78.75477,-0.54776],[-78.75861,-0.54766],[-78.76546,-0.54452],[-78.77069,-0.54539],[-78.7719,-0.54268],[-78.77454,-0.54299],[-78.77833,-0.53849],[-78.78067,-0.539],[-78.78255,-0.54077],[-78.78584,-0.53987],[-78.79029,-0.54284],[-78.79316,-0.54341],[-78.79455,-0.54261],[-78.79538,-0.54357],[-78.79666,-0.54174],[-78.80422,-0.53997],[-78.80855,-0.53618],[-78.8123,-0.53707],[-78.82108,-0.52946],[-78.82657,-0.52851],[-78.82861,-0.52597],[-78.8323,-0.5247],[-78.83436,-0.52071],[-78.83388,-0.51312],[-78.83526,-0.50932],[-78.8343,-0.50706],[-78.83563,-0.50436],[-78.83552,-0.50253],[-78.8328,-0.49978],[-78.83664,-0.49408],[-78.83613,-0.49206],[-78.83745,-0.48936],[-78.83844,-0.47779],[-78.84121,-0.47381],[-78.84461,-0.47222],[-78.8456,-0.47051],[-78.84818,-0.47019],[-78.85495,-0.46693],[-78.85667,-0.46496],[-78.8585,-0.45776],[-78.85864,-0.45326],[-78.86231,-0.44808],[-78.8621,-0.44218],[-78.86379,-0.4406],[-78.86324,-0.43651],[-78.86175,-0.43525],[-78.86156,-0.43376],[-78.86473,-0.4312],[-78.86524,-0.42877],[-78.86877,-0.42968],[-78.86978,-0.4263],[-78.87166,-0.42666],[-78.87256,-0.42383],[-78.87039,-0.42183],[-78.87103,-0.41794],[-78.87153,-0.41732],[-78.87318,-0.41791],[-78.87509,-0.41427],[-78.87648,-0.41554],[-78.8767,-0.41724],[-78.87804,-0.41696],[-78.88011,-0.41347],[-78.8826,-0.41612],[-78.88522,-0.41288],[-78.88778,-0.41297],[-78.89031,-0.41472],[-78.89309,-0.41279],[-78.89312,-0.41076],[-78.89,-0.41133],[-78.88894,-0.4107],[-78.88989,-0.40499],[-78.8961,-0.39488],[-78.89972,-0.39223],[-78.89869,-0.38752],[-78.8996,-0.38558],[-78.90365,-0.38465],[-78.90366,-0.38337],[-78.90813,-0.37778],[-78.91439,-0.37239],[-78.91581,-0.37215],[-78.91625,-0.36815],[-78.91216,-0.36576],[-78.91021,-0.36296],[-78.90678,-0.36122],[-78.90682,-0.35966],[-78.90972,-0.35663],[-78.91403,-0.35431],[-78.91568,-0.34919],[-78.91482,-0.3464],[-78.91846,-0.34235],[-78.91833,-0.34032],[-78.91969,-0.33966],[-78.92083,-0.34071],[-78.92285,-0.34063],[-78.92564,-0.33709],[-78.93372,-0.33641],[-78.93471,-0.33395],[-78.94169,-0.33133],[-78.94555,-0.32825],[-78.94802,-0.32799],[-78.95119,-0.32433],[-78.95227,-0.32035],[-78.95485,-0.31664],[-78.95047,-0.3128],[-78.947,-0.3125],[-78.94473,-0.31105],[-78.94256,-0.31389],[-78.93846,-0.31263],[-78.93684,-0.31373],[-78.92926,-0.31373],[-78.92758,-0.31651],[-78.91968,-0.32088],[-78.91833,-0.32359],[-78.9158,-0.32509],[-78.91462,-0.32731],[-78.91311,-0.32688],[-78.91311,-0.32965],[-78.90824,-0.3308],[-78.90349,-0.33362],[-78.90195,-0.33333],[-78.89923,-0.33589],[-78.89737,-0.33504],[-78.89586,-0.33277],[-78.89298,-0.33199],[-78.88952,-0.33362],[-78.88944,-0.33675],[-78.88418,-0.33707],[-78.87652,-0.33219],[-78.8753,-0.33034],[-78.87138,-0.33041],[-78.86973,-0.33223],[-78.86748,-0.33169],[-78.86522,-0.33544],[-78.86588,-0.33731],[-78.86471,-0.33885],[-78.86604,-0.34047],[-78.86416,-0.34556],[-78.86213,-0.34747],[-78.85655,-0.34939],[-78.85186,-0.34611],[-78.84908,-0.34831],[-78.8454,-0.34834],[-78.84503,-0.34739],[-78.84191,-0.34622],[-78.83525,-0.345],[-78.8345,-0.34316],[-78.83248,-0.34212],[-78.83254,-0.34443],[-78.83125,-0.34549],[-78.82405,-0.34352],[-78.82259,-0.34465],[-78.82229,-0.34627],[-78.81801,-0.34422],[-78.81602,-0.33855],[-78.81732,-0.33752],[-78.81716,-0.33454],[-78.81312,-0.33289],[-78.81043,-0.33404],[-78.8088,-0.33295],[-78.80784,-0.32875],[-78.8064,-0.32692],[-78.80711,-0.32473],[-78.80447,-0.32207],[-78.80274,-0.32045],[-78.79665,-0.31811],[-78.79498,-0.31564],[-78.79269,-0.31468],[-78.79084,-0.31545],[-78.78755,-0.31465],[-78.78578,-0.31015],[-78.78736,-0.30604],[-78.78316,-0.30438],[-78.77381,-0.2983],[-78.77397,-0.29613],[-78.77538,-0.29433],[-78.77272,-0.28698],[-78.77358,-0.28257],[-78.77317,-0.27917],[-78.77147,-0.27866],[-78.76856,-0.28129],[-78.76605,-0.282],[-78.763,-0.28143],[-78.75923,-0.28277],[-78.75438,-0.28157],[-78.75323,-0.27742],[-78.74613,-0.27742]]]}},{"type":"Feature","properties":{"canton":"Rumiñahui","canton_full":"RUMIÑAHUI","nombre":"Rumiñahui","color":"#059669","codcan":"080","bbox":[-78.48477,-0.50736,-78.39366,-0.29084]},"geometry":{"type":"Polygon","coordinates":[[[-78.45906,-0.29772],[-78.45796,-0.29727],[-78.45411,-0.30253],[-78.45289,-0.30226],[-78.45239,-0.30364],[-78.44784,-0.307],[-78.44165,-0.30988],[-78.43715,-0.31461],[-78.43365,-0.31517],[-78.4302,-0.32154],[-78.42605,-0.32257],[-78.42413,-0.32475],[-78.42385,-0.32697],[-78.42018,-0.32776],[-78.41691,-0.33518],[-78.41804,-0.33916],[-78.41513,-0.34343],[-78.41617,-0.34766],[-78.41211,-0.34988],[-78.41224,-0.35296],[-78.40805,-0.35315],[-78.41007,-0.3565],[-78.40911,-0.35887],[-78.40754,-0.3598],[-78.40769,-0.36274],[-78.40548,-0.36186],[-78.40396,-0.3659],[-78.40182,-0.36562],[-78.40209,-0.36897],[-78.39932,-0.36963],[-78.39637,-0.37189],[-78.39645,-0.37771],[-78.39366,-0.38272],[-78.39676,-0.39102],[-78.3999,-0.39248],[-78.40231,-0.39934],[-78.40617,-0.40191],[-78.40605,-0.40388],[-78.40729,-0.40535],[-78.40603,-0.4098],[-78.40775,-0.41055],[-78.40679,-0.41324],[-78.40779,-0.41981],[-78.41239,-0.43271],[-78.41155,-0.43408],[-78.41263,-0.43831],[-78.41228,-0.44197],[-78.41551,-0.44517],[-78.42077,-0.45451],[-78.42362,-0.45634],[-78.42333,-0.45731],[-78.42506,-0.46023],[-78.42433,-0.46678],[-78.42615,-0.47035],[-78.42625,-0.47425],[-78.42852,-0.47867],[-78.43003,-0.48482],[-78.4328,-0.48603],[-78.4361,-0.48593],[-78.44123,-0.49113],[-78.44145,-0.49327],[-78.44467,-0.49623],[-78.44638,-0.49632],[-78.44992,-0.50026],[-78.45193,-0.50012],[-78.45317,-0.50211],[-78.45614,-0.50295],[-78.45687,-0.50462],[-78.45821,-0.50418],[-78.46122,-0.50673],[-78.46238,-0.50607],[-78.46479,-0.50736],[-78.46691,-0.50658],[-78.46853,-0.50466],[-78.47008,-0.49602],[-78.46616,-0.48902],[-78.46647,-0.48198],[-78.47323,-0.47526],[-78.48172,-0.47268],[-78.48477,-0.46966],[-78.48065,-0.46641],[-78.48038,-0.4589],[-78.47933,-0.45811],[-78.47996,-0.45699],[-78.47885,-0.45396],[-78.47111,-0.44751],[-78.47023,-0.44154],[-78.47385,-0.43612],[-78.47457,-0.43753],[-78.47673,-0.4371],[-78.47707,-0.4278],[-78.47463,-0.41978],[-78.47385,-0.41989],[-78.47187,-0.41637],[-78.47443,-0.40543],[-78.47177,-0.40022],[-78.47056,-0.39159],[-78.46773,-0.39017],[-78.46791,-0.38598],[-78.4647,-0.37988],[-78.47074,-0.37827],[-78.47061,-0.37419],[-78.47225,-0.37373],[-78.47269,-0.37246],[-78.46996,-0.36813],[-78.47224,-0.36727],[-78.47418,-0.36777],[-78.47431,-0.36643],[-78.47548,-0.36592],[-78.47442,-0.36459],[-78.4744,-0.36064],[-78.47278,-0.35831],[-78.47349,-0.35587],[-78.47222,-0.35529],[-78.46902,-0.34917],[-78.46748,-0.34943],[-78.46371,-0.34531],[-78.47203,-0.34123],[-78.47166,-0.34013],[-78.47373,-0.33945],[-78.47275,-0.33855],[-78.47295,-0.33675],[-78.48001,-0.33471],[-78.47634,-0.32628],[-78.46881,-0.32919],[-78.46748,-0.3273],[-78.46791,-0.32612],[-78.46683,-0.32509],[-78.46751,-0.32382],[-78.46637,-0.32403],[-78.466,-0.32224],[-78.4722,-0.31554],[-78.46915,-0.31474],[-78.46773,-0.31126],[-78.46402,-0.30965],[-78.46279,-0.30644],[-78.46199,-0.3065],[-78.46217,-0.3031],[-78.46303,-0.30234],[-78.46158,-0.29857],[-78.46281,-0.29804],[-78.46297,-0.29084],[-78.45906,-0.29772]]]}}]}