{"type":"FeatureCollection","features":[{"type":"Feature","geometry":{"type":"MultiPolygon","coordinates":[[[[-78.04322,0.36257],[-78.04103,0.35691],[-78.03992,0.35627],[-78.03481,0.35917],[-78.02993,0.3603],[-78.02887,0.36332],[-78.02689,0.36552],[-78.02842,0.36006],[-78.02659,0.35878],[-78.026,0.35426],[-78.02492,0.35317],[-78.0261,0.3506],[-78.02467,0.34847],[-78.02721,0.34352],[-78.03093,0.34071],[-78.02877,0.33605],[-78.02979,0.33215],[-78.02864,0.33025],[-78.02704,0.32186],[-78.028,0.32062],[-78.02764,0.31001],[-78.03171,0.29865],[-78.03256,0.29062],[-78.02924,0.29191],[-78.03184,0.28902],[-78.03398,0.28842],[-78.03397,0.28573],[-78.03629,0.27965],[-78.04498,0.2748],[-78.0534,0.27393],[-78.05704,0.27454],[-78.0641,0.27655],[-78.07113,0.28042],[-78.07329,0.2801],[-78.07586,0.28143],[-78.0843,0.2826],[-78.0899,0.28752],[-78.09285,0.28794],[-78.09395,0.29036],[-78.09564,0.29023],[-78.09665,0.29126],[-78.09552,0.29519],[-78.09665,0.29768],[-78.09622,0.29953],[-78.09864,0.30143],[-78.09997,0.3008],[-78.10371,0.30236],[-78.1091,0.30253],[-78.10908,0.30002],[-78.11261,0.30089],[-78.11253,0.30245],[-78.11967,0.3033],[-78.11838,0.31059],[-78.11476,0.3097],[-78.11445,0.31107],[-78.11545,0.31699],[-78.11487,0.32496],[-78.11587,0.32677],[-78.11513,0.33022],[-78.11718,0.33124],[-78.12782,0.32849],[-78.12944,0.32652],[-78.1354,0.32647],[-78.13399,0.32206],[-78.13976,0.32333],[-78.14072,0.32513],[-78.14363,0.32709],[-78.14706,0.32268],[-78.14594,0.31707],[-78.14981,0.31693],[-78.1552,0.31821],[-78.15148,0.32901],[-78.15272,0.33001],[-78.15172,0.33553],[-78.1525,0.33667],[-78.14952,0.33968],[-78.14595,0.3403],[-78.13817,0.34575],[-78.12328,0.34866],[-78.12298,0.35075],[-78.11264,0.34893],[-78.11224,0.34539],[-78.11115,0.34559],[-78.11107,0.347],[-78.10509,0.34631],[-78.10425,0.34676],[-78.10474,0.35022],[-78.10648,0.35299],[-78.10414,0.35376],[-78.10202,0.35197],[-78.0973,0.35231],[-78.09208,0.35619],[-78.08922,0.35994],[-78.08096,0.3509],[-78.0782,0.35146],[-78.07775,0.35035],[-78.07551,0.3507],[-78.07484,0.34946],[-78.07434,0.35015],[-78.07205,0.3499],[-78.07035,0.34826],[-78.06806,0.34769],[-78.06786,0.34505],[-78.06532,0.34042],[-78.06599,0.34295],[-78.06431,0.34688],[-78.06433,0.35064],[-78.06549,0.35681],[-78.06446,0.35888],[-78.06243,0.3589],[-78.05317,0.3642],[-78.04966,0.36232],[-78.04745,0.36261],[-78.0462,0.36434],[-78.0464,0.36571],[-78.04401,0.36431],[-78.04322,0.36257]]]]},"properties":{"fid":14,"PARROQUIA":"SAN FRANCISCO","CANTON":"IBARRA","PROVINCIA":"IMBABURA","CIRCUNSCRIPCION":"CIRCUNSCRIPCI\u00d3N URBANA","NUM_SECTORES":4,"CASOS":40,"ETIQUETA":"4 | SAN FRANCISCO"}},{"type":"Feature","geometry":{"type":"MultiPolygon","coordinates":[[[[-78.12213,0.3885],[-78.1215,0.38563],[-78.11787,0.38033],[-78.11729,0.37424],[-78.11521,0.37085],[-78.11646,0.3618],[-78.11559,0.36059],[-78.11352,0.36194],[-78.11484,0.36822],[-78.11311,0.36941],[-78.11282,0.37176],[-78.11154,0.37231],[-78.11136,0.37014],[-78.10891,0.36697],[-78.10688,0.35789],[-78.10414,0.35376],[-78.10648,0.35299],[-78.10474,0.35022],[-78.10425,0.34676],[-78.11107,0.347],[-78.11115,0.34559],[-78.11224,0.34539],[-78.11264,0.34893],[-78.12298,0.35075],[-78.12328,0.34866],[-78.13875,0.34551],[-78.14595,0.3403],[-78.14952,0.33968],[-78.1525,0.33667],[-78.1538,0.33822],[-78.151,0.34273],[-78.15153,0.34449],[-78.15066,0.34499],[-78.15118,0.34797],[-78.15045,0.34834],[-78.15344,0.35499],[-78.1514,0.35594],[-78.15161,0.35782],[-78.1464,0.35079],[-78.14336,0.35319],[-78.14296,0.35467],[-78.14057,0.35444],[-78.13835,0.35623],[-78.13455,0.35585],[-78.12976,0.36105],[-78.12785,0.36205],[-78.12528,0.36114],[-78.12436,0.36487],[-78.1257,0.36767],[-78.12462,0.36971],[-78.12547,0.36994],[-78.12525,0.37318],[-78.12391,0.37449],[-78.12374,0.3797],[-78.1282,0.38643],[-78.1262,0.38817],[-78.12423,0.38711],[-78.12213,0.3885]]]]},"properties":{"fid":16,"PARROQUIA":"SAGRARIO","CANTON":"IBARRA","PROVINCIA":"IMBABURA","CIRCUNSCRIPCION":"CIRCUNSCRIPCI\u00d3N URBANA","NUM_SECTORES":5,"CASOS":50,"ETIQUETA":"5 | SAGRARIO"}}]}