{
"type": "FeatureCollection",
"name": "puntos_llegada",
"crs": { "type": "name", "properties": { "name": "urn:ogc:def:crs:OGC:1.3:CRS84" } },
"xy_coordinate_resolution": 1e-15,
"features": [
{ "type": "Feature", "properties": { "fid": 1, "sec_anm": "070150028006", "parroquia": "Jubones", "nombre_referencia": "ESCUELA DE EDUCACION BMSICA DR. DAVID RODAS CUERVO", "tipo_referencia": "Escuela / Educación", "prioridad": 2, "coord_x": 616174.21, "coord_y": 9640461.46, "fid_origen": 2202077, "nombre_acortado": "EEB Dr. David Rodas Cuervo" }, "geometry": { "type": "Point", "coordinates": [ -79.954356848814513, -3.252278727767244 ] } },
{ "type": "Feature", "properties": { "fid": 2, "sec_anm": "070150038002", "parroquia": "Jambelí", "nombre_referencia": "ESCUELA DE EDUCACION BASICA MARISCAL SUCRE", "tipo_referencia": "Escuela / Educación", "prioridad": 2, "coord_x": 614513.33, "coord_y": 9639721.82, "fid_origen": 2238677, "nombre_acortado": "EEB Mariscal Sucre" }, "geometry": { "type": "Point", "coordinates": [ -79.969297416759062, -3.258984644690003 ] } },
{ "type": "Feature", "properties": { "fid": 3, "sec_anm": "070150014008", "parroquia": "Jambelí", "nombre_referencia": "CENTRO COMERCIAL MUNICIPAL LAS PALMERAS", "tipo_referencia": "Otro Hito Urbano", "prioridad": 5, "coord_x": 615686.0, "coord_y": 9640611.23, "fid_origen": 2190231, "nombre_acortado": "CC Municipal Las Palmeras" }, "geometry": { "type": "Point", "coordinates": [ -79.958751969180668, -3.250928531152386 ] } },
{ "type": "Feature", "properties": { "fid": 4, "sec_anm": "070150001001", "parroquia": "Puerto Bolívar", "nombre_referencia": "UPC PUERTO BOLIVAR", "tipo_referencia": "UPC / Policía", "prioridad": 1, "coord_x": 610741.53, "coord_y": 9638473.65, "fid_origen": 2244266, "nombre_acortado": "UPC Pto. Bolívar" }, "geometry": { "type": "Point", "coordinates": [ -80.003231636362969, -3.270309496660488 ] } },
{ "type": "Feature", "properties": { "fid": 5, "sec_anm": "070150037003", "parroquia": "Jambelí", "nombre_referencia": "ESCUELA DE EDUCACION BASICA JAVIER", "tipo_referencia": "Escuela / Educación", "prioridad": 2, "coord_x": 614355.44, "coord_y": 9639236.3, "fid_origen": 2239642, "nombre_acortado": "EEB Javier" }, "geometry": { "type": "Point", "coordinates": [ -79.970713895444845, -3.263377925678834 ] } },
{ "type": "Feature", "properties": { "fid": 6, "sec_anm": "070150035011", "parroquia": "Jambelí", "nombre_referencia": "CENTRO MEDICO MUNICIPAL 8 DE NOVIEMBRE", "tipo_referencia": "Salud", "prioridad": 4, "coord_x": 613745.59, "coord_y": 9639458.94, "fid_origen": 2228508, "nombre_acortado": "CM Municipal 8 de Noviembre" }, "geometry": { "type": "Point", "coordinates": [ -79.976204470473917, -3.261369628444376 ] } },
{ "type": "Feature", "properties": { "fid": 7, "sec_anm": "070150035003", "parroquia": "Jambelí", "nombre_referencia": "ESCUELA DE EUCACIN 9 DE OCTUBRE", "tipo_referencia": "Escuela / Educación", "prioridad": 2, "coord_x": 613716.35, "coord_y": 9639731.05, "fid_origen": 2227767, "nombre_acortado": "EEB 9 de Octubre" }, "geometry": { "type": "Point", "coordinates": [ -79.97647008032537, -3.258908454303504 ] } },
{ "type": "Feature", "properties": { "fid": 8, "sec_anm": "070150008009", "parroquia": "Jambelí", "nombre_referencia": "ESCUELA DE E.B. \"VICTOR ANTONIO MORENO MOSQUERA\"", "tipo_referencia": "Escuela / Educación", "prioridad": 2, "coord_x": 613104.15, "coord_y": 9640608.17, "fid_origen": 2249881, "nombre_acortado": "Eeb. \"Victor Antonio Moreno Mosquera\"" }, "geometry": { "type": "Point", "coordinates": [ -79.981987693165365, -3.250980012350285 ] } },
{ "type": "Feature", "properties": { "fid": 9, "sec_anm": "070150008002", "parroquia": "Puerto Bolívar", "nombre_referencia": "ESCUELA FISCAL \"SARA SERRANO\"", "tipo_referencia": "Escuela / Educación", "prioridad": 2, "coord_x": 612351.8, "coord_y": 9640372.31, "fid_origen": 2249767, "nombre_acortado": "Esc. Fiscal \"Sara Serrano\"" }, "geometry": { "type": "Point", "coordinates": [ -79.988756543304888, -3.253120391335963 ] } },
{ "type": "Feature", "properties": { "fid": 10, "sec_anm": "070150033001", "parroquia": "Puerto Bolívar", "nombre_referencia": "TEMPLO MESEANICO KEYLA YISRAEL", "tipo_referencia": "Iglesia / Templo", "prioridad": 3, "coord_x": 612495.15, "coord_y": 9640168.89, "fid_origen": 2211710, "nombre_acortado": "Templo Keyla Yisrael" }, "geometry": { "type": "Point", "coordinates": [ -79.987464527369696, -3.254959122888025 ] } },
{ "type": "Feature", "properties": { "fid": 11, "sec_anm": "070150033004", "parroquia": "Jambelí", "nombre_referencia": "IGLESIA PENTECOSTES RESTAURADORA DEL ECUADOR", "tipo_referencia": "Iglesia / Templo", "prioridad": 3, "coord_x": 613177.55, "coord_y": 9640070.59, "fid_origen": 2210260, "nombre_acortado": "Iglesia Pentecostés" }, "geometry": { "type": "Point", "coordinates": [ -79.981322233337607, -3.25584212656059 ] } },
{ "type": "Feature", "properties": { "fid": 12, "sec_anm": "070150005002", "parroquia": "Puerto Bolívar", "nombre_referencia": "CENTRO DE SALUD AMAZONAS", "tipo_referencia": "Salud", "prioridad": 4, "coord_x": 611836.39, "coord_y": 9639622.41, "fid_origen": 2196825, "nombre_acortado": "CS Amazonas" }, "geometry": { "type": "Point", "coordinates": [ -79.993388312912117, -3.259908356326138 ] } },
{ "type": "Feature", "properties": { "fid": 13, "sec_anm": "070150005006", "parroquia": "Puerto Bolívar", "nombre_referencia": "UPC", "tipo_referencia": "UPC / Policía", "prioridad": 1, "coord_x": 611722.94, "coord_y": 9639223.5, "fid_origen": 2197166, "nombre_acortado": "UPC" }, "geometry": { "type": "Point", "coordinates": [ -79.994405764107768, -3.263517718008862 ] } },
{ "type": "Feature", "properties": { "fid": 14, "sec_anm": "070150003001", "parroquia": "Puerto Bolívar", "nombre_referencia": "JUNTA PARROQUIAL PUERTO BOLIVAR", "tipo_referencia": "Otro Hito Urbano", "prioridad": 5, "coord_x": 610969.14, "coord_y": 9639082.4, "fid_origen": 2236561, "nombre_acortado": "Junta Parr. Pto. Bolívar" }, "geometry": { "type": "Point", "coordinates": [ -80.001188587363529, -3.264800906887263 ] } },
{ "type": "Feature", "properties": { "fid": 15, "sec_anm": "070150064005", "parroquia": "9 de Mayo", "nombre_referencia": "INSTITUCION EDUCATIVA PARTICULAR \"SAN CARLOS\"", "tipo_referencia": "Escuela / Educación", "prioridad": 2, "coord_x": 615711.64, "coord_y": 9637702.12, "fid_origen": 2238140, "nombre_acortado": "UE Part. \"San Carlos\"" }, "geometry": { "type": "Point", "coordinates": [ -79.958494085141226, -3.277242744473827 ] } },
{ "type": "Feature", "properties": { "fid": 16, "sec_anm": "070150076006", "parroquia": "El Cambio", "nombre_referencia": "ESUELA DE EDUCACION GRAL. ELOY ALFARO", "tipo_referencia": "Escuela / Educación", "prioridad": 2, "coord_x": 622041.9, "coord_y": 9636507.92, "fid_origen": 2184306, "nombre_acortado": "EEB Gral. Eloy Alfaro" }, "geometry": { "type": "Point", "coordinates": [ -79.9015112845982, -3.287983515917168 ] } },
{ "type": "Feature", "properties": { "fid": 17, "sec_anm": "070150076003", "parroquia": "El Cambio", "nombre_referencia": "COLEGIO TECNICO ALEJANDRO CASTRO BENITEZ", "tipo_referencia": "Escuela / Educación", "prioridad": 2, "coord_x": 622465.97, "coord_y": 9637200.08, "fid_origen": 2373754, "nombre_acortado": "Col. Téc. Alejandro Castro Benitez" }, "geometry": { "type": "Point", "coordinates": [ -79.897701641894386, -3.281718454186958 ] } },
{ "type": "Feature", "properties": { "fid": 18, "sec_anm": "070150076009", "parroquia": "El Cambio", "nombre_referencia": "ESCUELA PARTICULAR LAS AGUILAS DEL SABER", "tipo_referencia": "Escuela / Educación", "prioridad": 2, "coord_x": 621683.2, "coord_y": 9636673.48, "fid_origen": 2373833, "nombre_acortado": "EEB Part. las Aguilas del Saber" }, "geometry": { "type": "Point", "coordinates": [ -79.904741106581398, -3.286489564916923 ] } },
{ "type": "Feature", "properties": { "fid": 19, "sec_anm": "070150012007", "parroquia": "Jambelí", "nombre_referencia": "ESCUELA FISCAL 25 DE JUNIO", "tipo_referencia": "Escuela / Educación", "prioridad": 2, "coord_x": 614685.75, "coord_y": 9640481.82, "fid_origen": 2220223, "nombre_acortado": "Esc. Fiscal 25 de Junio" }, "geometry": { "type": "Point", "coordinates": [ -79.967752657676229, -3.252108468893028 ] } },
{ "type": "Feature", "properties": { "fid": 20, "sec_anm": "070150061002", "parroquia": "9 de Mayo", "nombre_referencia": "ANTIGUO UPC", "tipo_referencia": "UPC / Policía", "prioridad": 1, "coord_x": 615106.07, "coord_y": 9637769.09, "fid_origen": 2199394, "nombre_acortado": "Antiguo UPC" }, "geometry": { "type": "Point", "coordinates": [ -79.963944735959302, -3.276642586477806 ] } },
{ "type": "Feature", "properties": { "fid": 21, "sec_anm": "070150034001", "parroquia": "Puerto Bolívar", "nombre_referencia": "POLICIA JUDICIAL EL ORO", "tipo_referencia": "UPC / Policía", "prioridad": 1, "coord_x": 612143.76, "coord_y": 9639956.92, "fid_origen": 2210221, "nombre_acortado": "Policía Judicial" }, "geometry": { "type": "Point", "coordinates": [ -79.990625054663866, -3.256879720844144 ] } },
{ "type": "Feature", "properties": { "fid": 22, "sec_anm": "070150010006", "parroquia": "Jambelí", "nombre_referencia": "ESC. DE EDUCACION BASICA PROF. RAMOS DE OLIVA ECHE", "tipo_referencia": "Escuela / Educación", "prioridad": 2, "coord_x": 614320.16, "coord_y": 9640725.5, "fid_origen": 2208490, "nombre_acortado": "EEB Prof. Ramos de Oliva Eche" }, "geometry": { "type": "Point", "coordinates": [ -79.97104508090257, -3.249907625221693 ] } },
{ "type": "Feature", "properties": { "fid": 23, "sec_anm": "070150010009", "parroquia": "Jambelí", "nombre_referencia": "UNIDAD EDUCATIVA 24 DE MAYO", "tipo_referencia": "Escuela / Educación", "prioridad": 2, "coord_x": 613987.73, "coord_y": 9640460.86, "fid_origen": 2209743, "nombre_acortado": "UE 24 de Mayo" }, "geometry": { "type": "Point", "coordinates": [ -79.974034373510477, -3.25230446774815 ] } },
{ "type": "Feature", "properties": { "fid": 24, "sec_anm": "070150032003", "parroquia": "Jambelí", "nombre_referencia": "CENTRO EDUCATIVO GASTRONOMICO", "tipo_referencia": "Escuela / Educación", "prioridad": 2, "coord_x": 614247.93, "coord_y": 9640313.27, "fid_origen": 2235200, "nombre_acortado": "Ce Gastronomico" }, "geometry": { "type": "Point", "coordinates": [ -79.971691349870142, -3.253637055122509 ] } },
{ "type": "Feature", "properties": { "fid": 25, "sec_anm": "070150032001", "parroquia": "Jambelí", "nombre_referencia": "COLISEO WALTER SACCO", "tipo_referencia": "Otro Hito Urbano", "prioridad": 5, "coord_x": 613549.21, "coord_y": 9640244.97, "fid_origen": 2234287, "nombre_acortado": "Coliseo Walter Sacco" }, "geometry": { "type": "Point", "coordinates": [ -79.977979009254014, -3.254261303481582 ] } },
{ "type": "Feature", "properties": { "fid": 26, "sec_anm": "070150043009", "parroquia": "Jubones", "nombre_referencia": "ESCUELA DE EDUCACION BASICA ROMEO MURILLO PAZMIEO", "tipo_referencia": "Escuela / Educación", "prioridad": 2, "coord_x": 616567.42, "coord_y": 9640074.93, "fid_origen": 2181953, "nombre_acortado": "EEB Romeo Murillo Pazmieo" }, "geometry": { "type": "Point", "coordinates": [ -79.950814483548754, -3.255771442666773 ] } },
{ "type": "Feature", "properties": { "fid": 27, "sec_anm": "070150031005", "parroquia": "Jambelí", "nombre_referencia": "CLINICA JESUS DE NAZARET", "tipo_referencia": "Salud", "prioridad": 4, "coord_x": 615307.32, "coord_y": 9640315.67, "fid_origen": 2213269, "nombre_acortado": "Clínica Jesús de Nazaret" }, "geometry": { "type": "Point", "coordinates": [ -79.962157200591832, -3.25360557540622 ] } },
{ "type": "Feature", "properties": { "fid": 28, "sec_anm": "070150031003", "parroquia": "Jambelí", "nombre_referencia": "CENTRO DE SALUD BUENOS AIRES", "tipo_referencia": "Salud", "prioridad": 4, "coord_x": 615026.31, "coord_y": 9640526.14, "fid_origen": 2213057, "nombre_acortado": "CS Buenos Aires" }, "geometry": { "type": "Point", "coordinates": [ -79.964688105557769, -3.251704396028179 ] } }
]
}
