{"type": "FeatureCollection", "features": [{"type": "Feature", "properties": {"sc": "1", "num_muestra": 1, "codigo_muestra": "1", "tipologia": "B", "etiqueta": "1|B", "etiquetaSC": "1|B", "parroquia": "DR MIGUEL EGAS / PEGUCHE", "circunscripcion": "CIRCUNSCRIPCION RURAL", "canton": "OTAVALO", "sec_anm": "100451002004", "pob_t": 465.0, "v_pres": 109.0, "dens_pob": 1617.95, "bbox": [[-78.234333, 0.250827], [-78.227679, 0.25657]], "centroid": [-78.231186, 0.253825]}, "geometry": {"type": "Point", "coordinates": [-78.231186, 0.253825]}}, {"type": "Feature", "properties": {"sc": "2", "num_muestra": 2, "codigo_muestra": "2", "tipologia": "E", "etiqueta": "2|E", "etiquetaSC": "2|E", "parroquia": "DR MIGUEL EGAS / PEGUCHE", "circunscripcion": "CIRCUNSCRIPCION RURAL", "canton": "OTAVALO", "sec_anm": "100451001007", "pob_t": 328.0, "v_pres": 80.0, "dens_pob": 3740.02, "bbox": [[-78.243722, 0.247483], [-78.240163, 0.250794]], "centroid": [-78.241642, 0.249134]}, "geometry": {"type": "Point", "coordinates": [-78.241642, 0.249134]}}, {"type": "Feature", "properties": {"sc": "3", "num_muestra": 3, "codigo_muestra": "3", "tipologia": "F", "etiqueta": "3|F", "etiquetaSC": "3|F", "parroquia": "DR MIGUEL EGAS / PEGUCHE", "circunscripcion": "CIRCUNSCRIPCION RURAL", "canton": "OTAVALO", "sec_anm": "100451001004", "pob_t": 396.0, "v_pres": 97.0, "dens_pob": 3771.43, "bbox": [[-78.249629, 0.244834], [-78.245962, 0.249238]], "centroid": [-78.247669, 0.247028]}, "geometry": {"type": "Point", "coordinates": [-78.247669, 0.247028]}}, {"type": "Feature", "properties": {"sc": "4", "num_muestra": 4, "codigo_muestra": "4", "tipologia": "H", "etiqueta": "4|H", "etiquetaSC": "4|H", "parroquia": "EUGENIO ESPEJO", "circunscripcion": "CIRCUNSCRIPCION RURAL", "canton": "OTAVALO", "sec_anm": "100452001003", "pob_t": 305.0, "v_pres": 69.0, "dens_pob": 3025.79, "bbox": [[-78.243662, 0.215635], [-78.23898, 0.21909]], "centroid": [-78.241864, 0.217362]}, "geometry": {"type": "Point", "coordinates": [-78.241864, 0.217362]}}, {"type": "Feature", "properties": {"sc": "5", "num_muestra": 5, "codigo_muestra": "5", "tipologia": "G", "etiqueta": "5|G", "etiquetaSC": "5|G", "parroquia": "EUGENIO ESPEJO", "circunscripcion": "CIRCUNSCRIPCION RURAL", "canton": "OTAVALO", "sec_anm": "100452001010", "pob_t": 291.0, "v_pres": 83.0, "dens_pob": 2033.54, "bbox": [[-78.250653, 0.203955], [-78.245305, 0.211953]], "centroid": [-78.248222, 0.207918]}, "geometry": {"type": "Point", "coordinates": [-78.248222, 0.207918]}}, {"type": "Feature", "properties": {"sc": "6", "num_muestra": 6, "codigo_muestra": "6", "tipologia": "A", "etiqueta": "6|A", "etiquetaSC": "6|A", "parroquia": "EUGENIO ESPEJO", "circunscripcion": "CIRCUNSCRIPCION RURAL", "canton": "OTAVALO", "sec_anm": "100452002003", "pob_t": 380.0, "v_pres": 100.0, "dens_pob": 1585.31, "bbox": [[-78.259969, 0.19217], [-78.255275, 0.204413]], "centroid": [-78.25754, 0.198292]}, "geometry": {"type": "Point", "coordinates": [-78.25754, 0.198292]}}, {"type": "Feature", "properties": {"sc": "7", "num_muestra": 7, "codigo_muestra": "7", "tipologia": "C", "etiqueta": "7|C", "etiquetaSC": "7|C", "parroquia": "GONZALEZ SUAREZ", "circunscripcion": "CIRCUNSCRIPCION RURAL", "canton": "OTAVALO", "sec_anm": "100453001003", "pob_t": 321.0, "v_pres": 86.0, "dens_pob": 5846.99, "bbox": [[-78.203953, 0.178765], [-78.200299, 0.183689]], "centroid": [-78.202417, 0.181229]}, "geometry": {"type": "Point", "coordinates": [-78.202417, 0.181229]}}, {"type": "Feature", "properties": {"sc": "8", "num_muestra": 8, "codigo_muestra": "8", "tipologia": "F", "etiqueta": "8|F", "etiquetaSC": "8|F", "parroquia": "GONZALEZ SUAREZ", "circunscripcion": "CIRCUNSCRIPCION RURAL", "canton": "OTAVALO", "sec_anm": "100453001008", "pob_t": 421.0, "v_pres": 104.0, "dens_pob": 1751.98, "bbox": [[-78.214119, 0.174866], [-78.208305, 0.183424]], "centroid": [-78.210818, 0.179284]}, "geometry": {"type": "Point", "coordinates": [-78.210818, 0.179284]}}, {"type": "Feature", "properties": {"sc": "9", "num_muestra": 9, "codigo_muestra": "9", "tipologia": "D", "etiqueta": "9|D", "etiquetaSC": "9|D", "parroquia": "GONZALEZ SUAREZ", "circunscripcion": "CIRCUNSCRIPCION RURAL", "canton": "OTAVALO", "sec_anm": "100453001005", "pob_t": 393.0, "v_pres": 98.0, "dens_pob": 3356.11, "bbox": [[-78.202685, 0.17451], [-78.198329, 0.179819]], "centroid": [-78.20098, 0.177169]}, "geometry": {"type": "Point", "coordinates": [-78.20098, 0.177169]}}, {"type": "Feature", "properties": {"sc": "10", "num_muestra": 10, "codigo_muestra": "10", "tipologia": "B", "etiqueta": "10|B", "etiquetaSC": "10|B", "parroquia": "SAN JOSE DE QUICHINCHE", "circunscripcion": "CIRCUNSCRIPCION RURAL", "canton": "OTAVALO", "sec_anm": "100455001002", "pob_t": 588.0, "v_pres": 151.0, "dens_pob": 1963.27, "bbox": [[-78.291334, 0.236415], [-78.28417, 0.242739]], "centroid": [-78.287389, 0.239574]}, "geometry": {"type": "Point", "coordinates": [-78.287389, 0.239574]}}, {"type": "Feature", "properties": {"sc": "11", "num_muestra": 11, "codigo_muestra": "11", "tipologia": "D", "etiqueta": "11|D", "etiquetaSC": "11|D", "parroquia": "SAN JOSE DE QUICHINCHE", "circunscripcion": "CIRCUNSCRIPCION RURAL", "canton": "OTAVALO", "sec_anm": "100455001001", "pob_t": 543.0, "v_pres": 148.0, "dens_pob": 1464.4, "bbox": [[-78.296379, 0.233435], [-78.288937, 0.243084]], "centroid": [-78.291799, 0.238254]}, "geometry": {"type": "Point", "coordinates": [-78.291799, 0.238254]}}, {"type": "Feature", "properties": {"sc": "12", "num_muestra": 12, "codigo_muestra": "12", "tipologia": "G", "etiqueta": "12|G", "etiquetaSC": "12|G", "parroquia": "SAN JOSE DE QUICHINCHE", "circunscripcion": "CIRCUNSCRIPCION RURAL", "canton": "OTAVALO", "sec_anm": "100455001004", "pob_t": 320.0, "v_pres": 77.0, "dens_pob": 1347.94, "bbox": [[-78.300144, 0.227976], [-78.291949, 0.23533]], "centroid": [-78.295593, 0.231642]}, "geometry": {"type": "Point", "coordinates": [-78.295593, 0.231642]}}, {"type": "Feature", "properties": {"sc": "13", "num_muestra": 13, "codigo_muestra": "13", "tipologia": "E", "etiqueta": "13|E", "etiquetaSC": "13|E", "parroquia": "SAN JOSE DE QUICHINCHE", "circunscripcion": "CIRCUNSCRIPCION RURAL", "canton": "OTAVALO", "sec_anm": "100455001005", "pob_t": 402.0, "v_pres": 98.0, "dens_pob": 1244.58, "bbox": [[-78.299172, 0.22553], [-78.28904, 0.234626]], "centroid": [-78.293288, 0.230084]}, "geometry": {"type": "Point", "coordinates": [-78.293288, 0.230084]}}, {"type": "Feature", "properties": {"sc": "14", "num_muestra": 14, "codigo_muestra": "14", "tipologia": "C", "etiqueta": "14|C", "etiquetaSC": "14|C", "parroquia": "SAN JUAN DE ILUMAN", "circunscripcion": "CIRCUNSCRIPCION RURAL", "canton": "OTAVALO", "sec_anm": "100456001001", "pob_t": 545.0, "v_pres": 125.0, "dens_pob": 3748.28, "bbox": [[-78.23131, 0.280778], [-78.226235, 0.285316]], "centroid": [-78.227931, 0.283125]}, "geometry": {"type": "Point", "coordinates": [-78.227931, 0.283125]}}, {"type": "Feature", "properties": {"sc": "15", "num_muestra": 15, "codigo_muestra": "15", "tipologia": "A", "etiqueta": "15|A", "etiquetaSC": "15|A", "parroquia": "SAN JUAN DE ILUMAN", "circunscripcion": "CIRCUNSCRIPCION RURAL", "canton": "OTAVALO", "sec_anm": "100456902001", "pob_t": 414.0, "v_pres": 90.0, "dens_pob": 1870.76, "bbox": [[-78.257014, 0.27438], [-78.250531, 0.279619]], "centroid": [-78.253687, 0.276996]}, "geometry": {"type": "Point", "coordinates": [-78.253687, 0.276996]}}, {"type": "Feature", "properties": {"sc": "16", "num_muestra": 16, "codigo_muestra": "16", "tipologia": "G", "etiqueta": "16|G", "etiquetaSC": "16|G", "parroquia": "SAN JUAN DE ILUMAN", "circunscripcion": "CIRCUNSCRIPCION RURAL", "canton": "OTAVALO", "sec_anm": "100456902005", "pob_t": 318.0, "v_pres": 73.0, "dens_pob": 4704.14, "bbox": [[-78.247949, 0.269615], [-78.244652, 0.273683]], "centroid": [-78.246379, 0.271667]}, "geometry": {"type": "Point", "coordinates": [-78.246379, 0.271667]}}, {"type": "Feature", "properties": {"sc": "17", "num_muestra": 17, "codigo_muestra": "17", "tipologia": "D", "etiqueta": "17|D", "etiquetaSC": "17|D", "parroquia": "SAN JUAN DE ILUMAN", "circunscripcion": "CIRCUNSCRIPCION RURAL", "canton": "OTAVALO", "sec_anm": "100456001006", "pob_t": 352.0, "v_pres": 88.0, "dens_pob": 2086.54, "bbox": [[-78.23229, 0.26884], [-78.226147, 0.273718]], "centroid": [-78.228621, 0.27128]}, "geometry": {"type": "Point", "coordinates": [-78.228621, 0.27128]}}, {"type": "Feature", "properties": {"sc": "18", "num_muestra": 18, "codigo_muestra": "18", "tipologia": "H", "etiqueta": "18|H", "etiquetaSC": "18|H", "parroquia": "SAN PABLO", "circunscripcion": "CIRCUNSCRIPCION RURAL", "canton": "OTAVALO", "sec_anm": "100457002011", "pob_t": 324.0, "v_pres": 89.0, "dens_pob": 776.05, "bbox": [[-78.169752, 0.206783], [-78.16365, 0.217138]], "centroid": [-78.166497, 0.21196]}, "geometry": {"type": "Point", "coordinates": [-78.166497, 0.21196]}}, {"type": "Feature", "properties": {"sc": "19", "num_muestra": 19, "codigo_muestra": "19", "tipologia": "H", "etiqueta": "19|H", "etiquetaSC": "19|H", "parroquia": "SAN PABLO", "circunscripcion": "CIRCUNSCRIPCION RURAL", "canton": "OTAVALO", "sec_anm": "100457002001", "pob_t": 512.0, "v_pres": 120.0, "dens_pob": 648.02, "bbox": [[-78.192666, 0.19869], [-78.18076, 0.213846]], "centroid": [-78.184419, 0.206215]}, "geometry": {"type": "Point", "coordinates": [-78.184419, 0.206215]}}, {"type": "Feature", "properties": {"sc": "20", "num_muestra": 20, "codigo_muestra": "20", "tipologia": "A", "etiqueta": "20|A", "etiquetaSC": "20|A", "parroquia": "SAN PABLO", "circunscripcion": "CIRCUNSCRIPCION RURAL", "canton": "OTAVALO", "sec_anm": "100457002003", "pob_t": 391.0, "v_pres": 101.0, "dens_pob": 958.8, "bbox": [[-78.184204, 0.197416], [-78.171983, 0.203177]], "centroid": [-78.179143, 0.200281]}, "geometry": {"type": "Point", "coordinates": [-78.179143, 0.200281]}}, {"type": "Feature", "properties": {"sc": "21", "num_muestra": 21, "codigo_muestra": "21", "tipologia": "F", "etiqueta": "21|F", "etiquetaSC": "21|F", "parroquia": "SAN PABLO", "circunscripcion": "CIRCUNSCRIPCION RURAL", "canton": "OTAVALO", "sec_anm": "100457001004", "pob_t": 303.0, "v_pres": 93.0, "dens_pob": 1781.31, "bbox": [[-78.197697, 0.19685], [-78.191149, 0.202713]], "centroid": [-78.193745, 0.19976]}, "geometry": {"type": "Point", "coordinates": [-78.193745, 0.19976]}}, {"type": "Feature", "properties": {"sc": "22", "num_muestra": 22, "codigo_muestra": "22", "tipologia": "C", "etiqueta": "22|C", "etiquetaSC": "22|C", "parroquia": "SAN PABLO", "circunscripcion": "CIRCUNSCRIPCION RURAL", "canton": "OTAVALO", "sec_anm": "100457002007", "pob_t": 483.0, "v_pres": 143.0, "dens_pob": 3265.72, "bbox": [[-78.189332, 0.193202], [-78.18403, 0.197608]], "centroid": [-78.186781, 0.195404]}, "geometry": {"type": "Point", "coordinates": [-78.186781, 0.195404]}}, {"type": "Feature", "properties": {"sc": "23", "num_muestra": 23, "codigo_muestra": "23", "tipologia": "E", "etiqueta": "23|E", "etiquetaSC": "23|E", "parroquia": "SAN RAFAEL", "circunscripcion": "CIRCUNSCRIPCION RURAL", "canton": "OTAVALO", "sec_anm": "100458002002", "pob_t": 270.0, "v_pres": 73.0, "dens_pob": 938.15, "bbox": [[-78.239665, 0.187847], [-78.234288, 0.19473]], "centroid": [-78.236706, 0.191261]}, "geometry": {"type": "Point", "coordinates": [-78.236706, 0.191261]}}, {"type": "Feature", "properties": {"sc": "24", "num_muestra": 24, "codigo_muestra": "24", "tipologia": "B", "etiqueta": "24|B", "etiquetaSC": "24|B", "parroquia": "SAN RAFAEL", "circunscripcion": "CIRCUNSCRIPCION RURAL", "canton": "OTAVALO", "sec_anm": "100458001006", "pob_t": 338.0, "v_pres": 108.0, "dens_pob": 1764.09, "bbox": [[-78.222399, 0.186535], [-78.2161, 0.192644]], "centroid": [-78.218267, 0.189607]}, "geometry": {"type": "Point", "coordinates": [-78.218267, 0.189607]}}, {"type": "Feature", "properties": {"sc": "25", "num_muestra": 25, "codigo_muestra": "25", "tipologia": "B", "etiqueta": "25|B", "etiquetaSC": "25|B", "parroquia": "JORDAN", "circunscripcion": "CIRCUNSCRIPCION URBANA", "canton": "OTAVALO", "sec_anm": "100450002008", "pob_t": 392.0, "v_pres": 123.0, "dens_pob": 2848.84, "bbox": [[-78.259146, 0.244455], [-78.253106, 0.247673]], "centroid": [-78.256278, 0.24604]}, "geometry": {"type": "Point", "coordinates": [-78.256278, 0.24604]}}, {"type": "Feature", "properties": {"sc": "26", "num_muestra": 26, "codigo_muestra": "26", "tipologia": "E", "etiqueta": "26|E", "etiquetaSC": "26|E", "parroquia": "JORDAN", "circunscripcion": "CIRCUNSCRIPCION URBANA", "canton": "OTAVALO", "sec_anm": "100450002010", "pob_t": 260.0, "v_pres": 77.0, "dens_pob": 3462.05, "bbox": [[-78.262433, 0.242861], [-78.257263, 0.244793]], "centroid": [-78.259844, 0.243839]}, "geometry": {"type": "Point", "coordinates": [-78.259844, 0.243839]}}, {"type": "Feature", "properties": {"sc": "27", "num_muestra": 27, "codigo_muestra": "27", "tipologia": "F", "etiqueta": "27|F", "etiquetaSC": "27|F", "parroquia": "JORDAN", "circunscripcion": "CIRCUNSCRIPCION URBANA", "canton": "OTAVALO", "sec_anm": "100450003005", "pob_t": 220.0, "v_pres": 67.0, "dens_pob": 4206.5, "bbox": [[-78.256466, 0.239875], [-78.253572, 0.243118]], "centroid": [-78.254766, 0.241487]}, "geometry": {"type": "Point", "coordinates": [-78.254766, 0.241487]}}, {"type": "Feature", "properties": {"sc": "28", "num_muestra": 28, "codigo_muestra": "28", "tipologia": "H", "etiqueta": "28|H", "etiquetaSC": "28|H", "parroquia": "JORDAN", "circunscripcion": "CIRCUNSCRIPCION URBANA", "canton": "OTAVALO", "sec_anm": "100450004004", "pob_t": 552.0, "v_pres": 159.0, "dens_pob": 9963.9, "bbox": [[-78.261821, 0.238537], [-78.259531, 0.242146]], "centroid": [-78.260931, 0.240506]}, "geometry": {"type": "Point", "coordinates": [-78.260931, 0.240506]}}, {"type": "Feature", "properties": {"sc": "29", "num_muestra": 29, "codigo_muestra": "29", "tipologia": "G", "etiqueta": "29|G", "etiquetaSC": "29|G", "parroquia": "JORDAN", "circunscripcion": "CIRCUNSCRIPCION URBANA", "canton": "OTAVALO", "sec_anm": "100450003003", "pob_t": 393.0, "v_pres": 120.0, "dens_pob": 6432.08, "bbox": [[-78.253364, 0.238059], [-78.24961, 0.240475]], "centroid": [-78.251479, 0.239174]}, "geometry": {"type": "Point", "coordinates": [-78.251479, 0.239174]}}, {"type": "Feature", "properties": {"sc": "30", "num_muestra": 30, "codigo_muestra": "30", "tipologia": "A", "etiqueta": "30|A", "etiquetaSC": "30|A", "parroquia": "JORDAN", "circunscripcion": "CIRCUNSCRIPCION URBANA", "canton": "OTAVALO", "sec_anm": "100450928005", "pob_t": 341.0, "v_pres": 87.0, "dens_pob": 1040.59, "bbox": [[-78.232391, 0.235282], [-78.222104, 0.24249]], "centroid": [-78.228115, 0.238895]}, "geometry": {"type": "Point", "coordinates": [-78.228115, 0.238895]}}, {"type": "Feature", "properties": {"sc": "31", "num_muestra": 31, "codigo_muestra": "31", "tipologia": "C", "etiqueta": "31|C", "etiquetaSC": "31|C", "parroquia": "JORDAN", "circunscripcion": "CIRCUNSCRIPCION URBANA", "canton": "OTAVALO", "sec_anm": "100450004011", "pob_t": 250.0, "v_pres": 80.0, "dens_pob": 4019.29, "bbox": [[-78.260143, 0.234795], [-78.25626, 0.238035]], "centroid": [-78.25785, 0.236414]}, "geometry": {"type": "Point", "coordinates": [-78.25785, 0.236414]}}, {"type": "Feature", "properties": {"sc": "32", "num_muestra": 32, "codigo_muestra": "32", "tipologia": "F", "etiqueta": "32|F", "etiquetaSC": "32|F", "parroquia": "JORDAN", "circunscripcion": "CIRCUNSCRIPCION URBANA", "canton": "OTAVALO", "sec_anm": "100450003010", "pob_t": 360.0, "v_pres": 105.0, "dens_pob": 16589.86, "bbox": [[-78.254217, 0.234907], [-78.252657, 0.237136]], "centroid": [-78.253405, 0.236165]}, "geometry": {"type": "Point", "coordinates": [-78.253405, 0.236165]}}, {"type": "Feature", "properties": {"sc": "33", "num_muestra": 33, "codigo_muestra": "33", "tipologia": "D", "etiqueta": "33|D", "etiquetaSC": "33|D", "parroquia": "JORDAN", "circunscripcion": "CIRCUNSCRIPCION URBANA", "canton": "OTAVALO", "sec_anm": "100450928007", "pob_t": 206.0, "v_pres": 53.0, "dens_pob": 994.69, "bbox": [[-78.228395, 0.230343], [-78.219807, 0.234521]], "centroid": [-78.225228, 0.232432]}, "geometry": {"type": "Point", "coordinates": [-78.225228, 0.232432]}}, {"type": "Feature", "properties": {"sc": "34", "num_muestra": 34, "codigo_muestra": "34", "tipologia": "B", "etiqueta": "34|B", "etiquetaSC": "34|B", "parroquia": "JORDAN", "circunscripcion": "CIRCUNSCRIPCION URBANA", "canton": "OTAVALO", "sec_anm": "100450009003", "pob_t": 400.0, "v_pres": 123.0, "dens_pob": 3112.84, "bbox": [[-78.254593, 0.228575], [-78.250492, 0.23391]], "centroid": [-78.252873, 0.231227]}, "geometry": {"type": "Point", "coordinates": [-78.252873, 0.231227]}}, {"type": "Feature", "properties": {"sc": "35", "num_muestra": 35, "codigo_muestra": "35", "tipologia": "D", "etiqueta": "35|D", "etiquetaSC": "35|D", "parroquia": "JORDAN", "circunscripcion": "CIRCUNSCRIPCION URBANA", "canton": "OTAVALO", "sec_anm": "100450009008", "pob_t": 341.0, "v_pres": 87.0, "dens_pob": 10059.0, "bbox": [[-78.260232, 0.227484], [-78.257108, 0.229743]], "centroid": [-78.258898, 0.228551]}, "geometry": {"type": "Point", "coordinates": [-78.258898, 0.228551]}}, {"type": "Feature", "properties": {"sc": "36", "num_muestra": 36, "codigo_muestra": "36", "tipologia": "G", "etiqueta": "36|G", "etiquetaSC": "36|G", "parroquia": "JORDAN", "circunscripcion": "CIRCUNSCRIPCION URBANA", "canton": "OTAVALO", "sec_anm": "100450009005", "pob_t": 325.0, "v_pres": 86.0, "dens_pob": 6900.21, "bbox": [[-78.257514, 0.22715], [-78.253399, 0.229654]], "centroid": [-78.255247, 0.228366]}, "geometry": {"type": "Point", "coordinates": [-78.255247, 0.228366]}}, {"type": "Feature", "properties": {"sc": "37", "num_muestra": 37, "codigo_muestra": "37", "tipologia": "E", "etiqueta": "37|E", "etiquetaSC": "37|E", "parroquia": "JORDAN", "circunscripcion": "CIRCUNSCRIPCION URBANA", "canton": "OTAVALO", "sec_anm": "100450007004", "pob_t": 213.0, "v_pres": 80.0, "dens_pob": 7717.39, "bbox": [[-78.263736, 0.226835], [-78.261249, 0.229186]], "centroid": [-78.262483, 0.228007]}, "geometry": {"type": "Point", "coordinates": [-78.262483, 0.228007]}}, {"type": "Feature", "properties": {"sc": "38", "num_muestra": 38, "codigo_muestra": "38", "tipologia": "C", "etiqueta": "38|C", "etiquetaSC": "38|C", "parroquia": "JORDAN", "circunscripcion": "CIRCUNSCRIPCION URBANA", "canton": "OTAVALO", "sec_anm": "100450010002", "pob_t": 385.0, "v_pres": 99.0, "dens_pob": 2936.69, "bbox": [[-78.257825, 0.223087], [-78.25331, 0.22703]], "centroid": [-78.255487, 0.225083]}, "geometry": {"type": "Point", "coordinates": [-78.255487, 0.225083]}}, {"type": "Feature", "properties": {"sc": "39", "num_muestra": 39, "codigo_muestra": "39", "tipologia": "A", "etiqueta": "39|A", "etiquetaSC": "39|A", "parroquia": "JORDAN", "circunscripcion": "CIRCUNSCRIPCION URBANA", "canton": "OTAVALO", "sec_anm": "100450929004", "pob_t": 463.0, "v_pres": 117.0, "dens_pob": 2538.38, "bbox": [[-78.231434, 0.22074], [-78.226543, 0.226734]], "centroid": [-78.228636, 0.223793]}, "geometry": {"type": "Point", "coordinates": [-78.228636, 0.223793]}}, {"type": "Feature", "properties": {"sc": "40", "num_muestra": 40, "codigo_muestra": "40", "tipologia": "G", "etiqueta": "40|G", "etiquetaSC": "40|G", "parroquia": "JORDAN", "circunscripcion": "CIRCUNSCRIPCION URBANA", "canton": "OTAVALO", "sec_anm": "100450929006", "pob_t": 475.0, "v_pres": 101.0, "dens_pob": 2143.5, "bbox": [[-78.226858, 0.218551], [-78.219619, 0.223743]], "centroid": [-78.223614, 0.220892]}, "geometry": {"type": "Point", "coordinates": [-78.223614, 0.220892]}}, {"type": "Feature", "properties": {"sc": "41", "num_muestra": 41, "codigo_muestra": "41", "tipologia": "D", "etiqueta": "41|D", "etiquetaSC": "41|D", "parroquia": "SAN LUIS", "circunscripcion": "CIRCUNSCRIPCION URBANA", "canton": "OTAVALO", "sec_anm": "100450005002", "pob_t": 349.0, "v_pres": 93.0, "dens_pob": 3013.82, "bbox": [[-78.272743, 0.234007], [-78.2676, 0.239709]], "centroid": [-78.269687, 0.236855]}, "geometry": {"type": "Point", "coordinates": [-78.269687, 0.236855]}}, {"type": "Feature", "properties": {"sc": "42", "num_muestra": 42, "codigo_muestra": "42", "tipologia": "H", "etiqueta": "42|H", "etiquetaSC": "42|H", "parroquia": "SAN LUIS", "circunscripcion": "CIRCUNSCRIPCION URBANA", "canton": "OTAVALO", "sec_anm": "100450005005", "pob_t": 381.0, "v_pres": 96.0, "dens_pob": 4319.73, "bbox": [[-78.272046, 0.23058], [-78.267861, 0.235598]], "centroid": [-78.271195, 0.233095]}, "geometry": {"type": "Point", "coordinates": [-78.271195, 0.233095]}}, {"type": "Feature", "properties": {"sc": "43", "num_muestra": 43, "codigo_muestra": "43", "tipologia": "H", "etiqueta": "43|H", "etiquetaSC": "43|H", "parroquia": "SAN LUIS", "circunscripcion": "CIRCUNSCRIPCION URBANA", "canton": "OTAVALO", "sec_anm": "100450011001", "pob_t": 665.0, "v_pres": 169.0, "dens_pob": 3380.78, "bbox": [[-78.281423, 0.222367], [-78.269518, 0.227436]], "centroid": [-78.277809, 0.224901]}, "geometry": {"type": "Point", "coordinates": [-78.277809, 0.224901]}}, {"type": "Feature", "properties": {"sc": "44", "num_muestra": 44, "codigo_muestra": "44", "tipologia": "A", "etiqueta": "44|A", "etiquetaSC": "44|A", "parroquia": "SAN LUIS", "circunscripcion": "CIRCUNSCRIPCION URBANA", "canton": "OTAVALO", "sec_anm": "100450011007", "pob_t": 362.0, "v_pres": 113.0, "dens_pob": 7418.03, "bbox": [[-78.272823, 0.222043], [-78.269607, 0.224697]], "centroid": [-78.270677, 0.223453]}, "geometry": {"type": "Point", "coordinates": [-78.270677, 0.223453]}}, {"type": "Feature", "properties": {"sc": "45", "num_muestra": 45, "codigo_muestra": "45", "tipologia": "F", "etiqueta": "45|F", "etiquetaSC": "45|F", "parroquia": "SAN LUIS", "circunscripcion": "CIRCUNSCRIPCION URBANA", "canton": "OTAVALO", "sec_anm": "100450010007", "pob_t": 285.0, "v_pres": 87.0, "dens_pob": 10070.67, "bbox": [[-78.266533, 0.222285], [-78.264196, 0.224292]], "centroid": [-78.265281, 0.223371]}, "geometry": {"type": "Point", "coordinates": [-78.265281, 0.223371]}}, {"type": "Feature", "properties": {"sc": "46", "num_muestra": 46, "codigo_muestra": "46", "tipologia": "C", "etiqueta": "46|C", "etiquetaSC": "46|C", "parroquia": "SAN LUIS", "circunscripcion": "CIRCUNSCRIPCION URBANA", "canton": "OTAVALO", "sec_anm": "100450011006", "pob_t": 310.0, "v_pres": 92.0, "dens_pob": 14220.18, "bbox": [[-78.269473, 0.222257], [-78.267476, 0.224063]], "centroid": [-78.268502, 0.223188]}, "geometry": {"type": "Point", "coordinates": [-78.268502, 0.223188]}}, {"type": "Feature", "properties": {"sc": "47", "num_muestra": 47, "codigo_muestra": "47", "tipologia": "E", "etiqueta": "47|E", "etiquetaSC": "47|E", "parroquia": "SAN LUIS", "circunscripcion": "CIRCUNSCRIPCION URBANA", "canton": "OTAVALO", "sec_anm": "100450010011", "pob_t": 437.0, "v_pres": 134.0, "dens_pob": 8229.76, "bbox": [[-78.266052, 0.218823], [-78.263288, 0.221973]], "centroid": [-78.264883, 0.220425]}, "geometry": {"type": "Point", "coordinates": [-78.264883, 0.220425]}}, {"type": "Feature", "properties": {"sc": "48", "num_muestra": 48, "codigo_muestra": "48", "tipologia": "B", "etiqueta": "48|B", "etiquetaSC": "48|B", "parroquia": "SAN LUIS", "circunscripcion": "CIRCUNSCRIPCION URBANA", "canton": "OTAVALO", "sec_anm": "100450012007", "pob_t": 566.0, "v_pres": 164.0, "dens_pob": 3791.02, "bbox": [[-78.271001, 0.215865], [-78.265497, 0.220813]], "centroid": [-78.269562, 0.21834]}, "geometry": {"type": "Point", "coordinates": [-78.269562, 0.21834]}}, {"type": "Feature", "properties": {"sc": "49", "num_muestra": 49, "codigo_muestra": "49", "tipologia": "C", "etiqueta": "49|C", "etiquetaSC": "49|C", "parroquia": "SAN LUIS", "circunscripcion": "CIRCUNSCRIPCION URBANA", "canton": "OTAVALO", "sec_anm": "100450012010", "pob_t": 377.0, "v_pres": 104.0, "dens_pob": 2847.43, "bbox": [[-78.278156, 0.214041], [-78.274078, 0.219354]], "centroid": [-78.276263, 0.216729]}, "geometry": {"type": "Point", "coordinates": [-78.276263, 0.216729]}}, {"type": "Feature", "properties": {"sc": "50", "num_muestra": 50, "codigo_muestra": "50", "tipologia": "A", "etiqueta": "50|A", "etiquetaSC": "50|A", "parroquia": "SAN LUIS", "circunscripcion": "CIRCUNSCRIPCION URBANA", "canton": "OTAVALO", "sec_anm": "100450012005", "pob_t": 367.0, "v_pres": 92.0, "dens_pob": 1243.65, "bbox": [[-78.274283, 0.201519], [-78.268051, 0.216044]], "centroid": [-78.269724, 0.208882]}, "geometry": {"type": "Point", "coordinates": [-78.269724, 0.208882]}}]}