{"type": "FeatureCollection", "name": "zonas_alerta", "features": [{"type": "Feature", "geometry": {"type": "Point", "coordinates": [-79.952677, -3.267617]}, "properties": {"fid": 0}}, {"type": "Feature", "geometry": {"type": "Point", "coordinates": [-79.952677, -3.267617]}, "properties": {"fid": 1}}, {"type": "Feature", "geometry": {"type": "Point", "coordinates": [-79.952677, -3.267617]}, "properties": {"fid": 2}}, {"type": "Feature", "geometry": {"type": "Point", "coordinates": [-79.957025, -3.273677]}, "properties": {"fid": 3}}, {"type": "Feature", "geometry": {"type": "Point", "coordinates": [-79.957025, -3.273677]}, "properties": {"fid": 4}}, {"type": "Feature", "geometry": {"type": "Point", "coordinates": [-79.957025, -3.273677]}, "properties": {"fid": 5}}, {"type": "Feature", "geometry": {"type": "Point", "coordinates": [-79.956855, -3.267798]}, "properties": {"fid": 6}}, {"type": "Feature", "geometry": {"type": "Point", "coordinates": [-79.956855, -3.267798]}, "properties": {"fid": 7}}, {"type": "Feature", "geometry": {"type": "Point", "coordinates": [-79.956855, -3.267798]}, "properties": {"fid": 8}}, {"type": "Feature", "geometry": {"type": "Point", "coordinates": [-79.957108, -3.277832]}, "properties": {"fid": 9}}, {"type": "Feature", "geometry": {"type": "Point", "coordinates": [-79.957108, -3.277832]}, "properties": {"fid": 10}}, {"type": "Feature", "geometry": {"type": "Point", "coordinates": [-79.957108, -3.277832]}, "properties": {"fid": 11}}, {"type": "Feature", "geometry": {"type": "Point", "coordinates": [-79.952677, -3.267617]}, "properties": {"fid": 12}}, {"type": "Feature", "geometry": {"type": "Point", "coordinates": [-79.957379, -3.288648]}, "properties": {"fid": 13}}, {"type": "Feature", "geometry": {"type": "Point", "coordinates": [-79.952677, -3.267617]}, "properties": {"fid": 14}}, {"type": "Feature", "geometry": {"type": "Point", "coordinates": [-79.915855, -3.28039]}, "properties": {"fid": 15}}, {"type": "Feature", "geometry": {"type": "Point", "coordinates": [-79.952677, -3.267617]}, "properties": {"fid": 16}}, {"type": "Feature", "geometry": {"type": "Point", "coordinates": [-79.887544, -3.267459]}, "properties": {"fid": 17}}, {"type": "Feature", "geometry": {"type": "Point", "coordinates": [-79.870884, -3.257654]}, "properties": {"fid": 18}}, {"type": "Feature", "geometry": {"type": "Point", "coordinates": [-79.852303, -3.251702]}, "properties": {"fid": 19}}, {"type": "Feature", "geometry": {"type": "Point", "coordinates": [-79.969202, -3.247632]}, "properties": {"fid": 20}}, {"type": "Feature", "geometry": {"type": "Point", "coordinates": [-79.934802, -3.244366]}, "properties": {"fid": 21}}, {"type": "Feature", "geometry": {"type": "Point", "coordinates": [-79.966388, -3.273707]}, "properties": {"fid": 22}}, {"type": "Feature", "geometry": {"type": "Point", "coordinates": [-79.929531, -3.250194]}, "properties": {"fid": 23}}, {"type": "Feature", "geometry": {"type": "Point", "coordinates": [-79.936914, -3.25485]}, "properties": {"fid": 24}}, {"type": "Feature", "geometry": {"type": "Point", "coordinates": [-79.936439, -3.254182]}, "properties": {"fid": 25}}, {"type": "Feature", "geometry": {"type": "Point", "coordinates": [-79.935707, -3.253815]}, "properties": {"fid": 26}}, {"type": "Feature", "geometry": {"type": "Point", "coordinates": [-79.934509, -3.253082]}, "properties": {"fid": 27}}, {"type": "Feature", "geometry": {"type": "Point", "coordinates": [-79.933468, -3.252562]}, "properties": {"fid": 28}}, {"type": "Feature", "geometry": {"type": "Point", "coordinates": [-79.932708, -3.251796]}, "properties": {"fid": 29}}, {"type": "Feature", "geometry": {"type": "Point", "coordinates": [-79.931888, -3.250758]}, "properties": {"fid": 30}}, {"type": "Feature", "geometry": {"type": "Point", "coordinates": [-79.930645, -3.249644]}, "properties": {"fid": 31}}, {"type": "Feature", "geometry": {"type": "Point", "coordinates": [-79.933412, -3.261351]}, "properties": {"fid": 32}}, {"type": "Feature", "geometry": {"type": "Point", "coordinates": [-79.93213, -3.261915]}, "properties": {"fid": 33}}, {"type": "Feature", "geometry": {"type": "Point", "coordinates": [-79.930765, -3.262525]}, "properties": {"fid": 34}}, {"type": "Feature", "geometry": {"type": "Point", "coordinates": [-79.928791, -3.263533]}, "properties": {"fid": 35}}, {"type": "Feature", "geometry": {"type": "Point", "coordinates": [-79.964557, -3.247359]}, "properties": {"fid": 36}}]}